{
"type": "FeatureCollection",
"crs": { "type": "name", "properties": { "name": "urn:ogc:def:crs:OGC:1.3:CRS84" } },
"features": [
{ "type": "Feature", "properties": { "changeset": 0, "tags": { "smoking": "outside", "seasonal:summer": "yes", "seasonal:winter": "no" }, "lon": 24.952852249145508, "id": 56418307, "timestamp": 1429855475, "version": 11, "lat": 60.178001403808594, "addr:city": "Helsinki", "addr:country": null, "addr:housenumber": "3", "addr:housename": null, "addr:postcode": "00530", "addr:street": "Hakaniemenranta", "email": null, "name": "Ravintolalaiva M\/S Maria", "opening_hours": null, "operator": null, "phone": "+358 44 945 9423", "url": null, "website": "https:\/\/www.facebook.com\/RavintolalaivaMaria", "amenity": "restaurant", "internet_access": null, "pub": null, "source": null, "osm_type": "node" }, "geometry": { "type": "Point", "coordinates": [ 24.952852249145508, 60.178001403808594 ] } },
{ "type": "Feature", "properties": { "changeset": 0, "tags": { "diet:vegan": "yes", "diet:vegetarian": "yes", "wheelchair": "limited" }, "lon": 24.944995880126953, "id": 59622323, "timestamp": 1553963252, "version": 10, "lat": 60.172111511230469, "addr:city": "Helsinki", "addr:country": null, "addr:housenumber": "18", "addr:housename": null, "addr:postcode": "00100", "addr:street": "Mikonkatu", "email": null, "name": "Maya Bar & Grill", "opening_hours": "Mo-Th 11:00-23:00; Fr 11:00-24:00; Sa 12:00-24:00; Su 13:00-23:00", "operator": null, "phone": null, "url": null, "website": "https:\/\/www.maya.fi\/", "amenity": "restaurant", "internet_access": null, "pub": null, "source": null, "osm_type": "node" }, "geometry": { "type": "Point", "coordinates": [ 24.944995880126953, 60.172111511230469 ] } },
{ "type": "Feature", "properties": { "changeset": 0, "tags": { "lunch": "yes", "smoking": "outside" }, "lon": 24.941545486450195, "id": 59631978, "timestamp": 1429827254, "version": 5, "lat": 60.176704406738281, "addr:city": "Helsinki", "addr:country": null, "addr:housenumber": "5", "addr:housename": null, "addr:postcode": "00100", "addr:street": "Kaisaniementie", "email": null, "name": "Ravintola Kaisaniemi", "opening_hours": null, "operator": null, "phone": "+358 9 632 223", "url": null, "website": "http:\/\/www.sinunjuhlasi.fi\/ravintolat-2\/ravintola-kaisaniemi\/#go_page_now", "amenity": "restaurant", "internet_access": null, "pub": null, "source": null, "osm_type": "node" }, "geometry": { "type": "Point", "coordinates": [ 24.941545486450195, 60.176704406738281 ] } },
{ "type": "Feature", "properties": { "changeset": 0, "tags": { "created_by": "Potlatch 0.4a", "wheelchair": "yes" }, "lon": 24.937646865844727, "id": 62967659, "timestamp": 1493503123, "version": 4, "lat": 60.171337127685547, "addr:city": "Helsinki", "addr:country": null, "addr:housenumber": "1 B", "addr:housename": null, "addr:postcode": "00100", "addr:street": "Mannerheiminaukio", "email": null, "name": "Ravintola Pääposti", "opening_hours": null, "operator": null, "phone": null, "url": null, "website": "https:\/\/fazer.fi\/kahvilat-ja-leipomot\/ravintolat\/byfazer\/paaposti\/", "amenity": "restaurant", "internet_access": null, "pub": null, "source": null, "osm_type": "node" }, "geometry": { "type": "Point", "coordinates": [ 24.937646865844727, 60.171337127685547 ] } },
{ "type": "Feature", "properties": { "changeset": 0, "tags": { "wheelchair": "limited" }, "lon": 24.947668075561523, "id": 76474077, "timestamp": 1468481090, "version": 8, "lat": 60.179019927978516, "addr:city": "Helsinki", "addr:country": "FI", "addr:housenumber": "6", "addr:housename": null, "addr:postcode": "00530", "addr:street": "Säästöpankinranta", "email": null, "name": "Graniittilinna", "opening_hours": null, "operator": null, "phone": null, "url": null, "website": "https:\/\/www.graniittilinna.com", "amenity": "restaurant", "internet_access": null, "pub": null, "source": null, "osm_type": "node" }, "geometry": { "type": "Point", "coordinates": [ 24.947668075561523, 60.179019927978516 ] } },
{ "type": "Feature", "properties": { "changeset": 0, "tags": { "lunch": "yes", "wheelchair": "no", "opening_hours:brunch": "Mo-Fr 10:30-14:00" }, "lon": 24.947454452514648, "id": 76474078, "timestamp": 1442943732, "version": 9, "lat": 60.178970336914062, "addr:city": "Helsinki", "addr:country": "FI", "addr:housenumber": null, "addr:housename": null, "addr:postcode": null, "addr:street": null, "email": null, "name": "Juttutuvan ruokasali", "opening_hours": "Mo 10:00-24:00; Tu-Th 10:00-01:00; Fr-Sa 10:00-03:00; Su 12:00-23:00", "operator": null, "phone": null, "url": null, "website": "http:\/\/www.juttutupa.com\/", "amenity": "restaurant", "internet_access": null, "pub": null, "source": null, "osm_type": "node" }, "geometry": { "type": "Point", "coordinates": [ 24.947454452514648, 60.178970336914062 ] } },
{ "type": "Feature", "properties": { "changeset": 0, "tags": { "wheelchair": "yes" }, "lon": 24.947574615478516, "id": 76474225, "timestamp": 1511444254, "version": 9, "lat": 60.178565979003906, "addr:city": "Helsinki", "addr:country": "FI", "addr:housenumber": "5 A", "addr:housename": null, "addr:postcode": "00530", "addr:street": "Paasivuorenkatu", "email": null, "name": "Paasiravintola", "opening_hours": null, "operator": null, "phone": null, "url": null, "website": "https:\/\/www.paasitorni.fi\/tilat\/paasiravintola\/", "amenity": "restaurant", "internet_access": null, "pub": null, "source": null, "osm_type": "node" }, "geometry": { "type": "Point", "coordinates": [ 24.947574615478516, 60.178565979003906 ] } },
{ "type": "Feature", "properties": { "changeset": 0, "tags": { "cuisine": "nordic" }, "lon": 24.951818466186523, "id": 76609844, "timestamp": 1553963499, "version": 8, "lat": 60.16656494140625, "addr:city": "Helsinki", "addr:country": "FI", "addr:housenumber": "16", "addr:housename": null, "addr:postcode": "00130", "addr:street": "Eteläranta", "email": null, "name": "Finnjävel", "opening_hours": null, "operator": null, "phone": null, "url": null, "website": "https:\/\/www.finnjavel.fi\/", "amenity": "restaurant", "internet_access": null, "pub": null, "source": null, "osm_type": "node" }, "geometry": { "type": "Point", "coordinates": [ 24.951818466186523, 60.16656494140625 ] } },
{ "type": "Feature", "properties": { "changeset": 0, "tags": { "note": "Radisson Blu Hotel's restaurant", "wheelchair": "yes" }, "lon": 24.945745468139648, "id": 93455942, "timestamp": 1492430854, "version": 5, "lat": 60.172138214111328, "addr:city": "Helsinki", "addr:country": null, "addr:housenumber": "23", "addr:housename": null, "addr:postcode": "00100", "addr:street": "Mikonkatu", "email": null, "name": "Ravintola Kitzens", "opening_hours": null, "operator": null, "phone": null, "url": null, "website": "https:\/\/www.raflaamo.fi\/fi\/helsinki\/kitzens", "amenity": "restaurant", "internet_access": null, "pub": null, "source": null, "osm_type": "node" }, "geometry": { "type": "Point", "coordinates": [ 24.945745468139648, 60.172138214111328 ] } },
{ "type": "Feature", "properties": { "changeset": 0, "tags": { "cuisine": "asian", "wheelchair": "yes" }, "lon": 24.937654495239258, "id": 150541351, "timestamp": 1482169324, "version": 10, "lat": 60.172393798828125, "addr:city": "Helsinki", "addr:country": null, "addr:housenumber": "2, 2. krs.\/Floor 2", "addr:housename": null, "addr:postcode": "00100", "addr:street": "Postikuja", "email": null, "name": "Red Apple", "opening_hours": null, "operator": null, "phone": null, "url": null, "website": null, "amenity": "restaurant", "internet_access": null, "pub": null, "source": null, "osm_type": "node" }, "geometry": { "type": "Point", "coordinates": [ 24.937654495239258, 60.172393798828125 ] } },
{ "type": "Feature", "properties": { "changeset": 0, "tags": { "diet:vegetarian": "yes", "name:fi": "Ravintola China", "name:zh": "中國樓酒家", "short_name": "China", "wheelchair": "limited" }, "lon": 24.936521530151367, "id": 151006260, "timestamp": 1551023035, "version": 16, "lat": 60.167324066162109, "addr:city": "Helsinki", "addr:country": "FI", "addr:housenumber": "25", "addr:housename": null, "addr:postcode": "00100", "addr:street": "Annankatu", "email": null, "name": "Ravintola China", "opening_hours": "Mo-Fr 11:00-23:00; Sa-Su 12:00-23:00; PH off", "operator": null, "phone": null, "url": null, "website": "http:\/\/www.ravintolachina.fi", "amenity": "restaurant", "internet_access": null, "pub": null, "source": null, "osm_type": "node" }, "geometry": { "type": "Point", "coordinates": [ 24.936521530151367, 60.167324066162109 ] } },
{ "type": "Feature", "properties": { "changeset": 0, "tags": null, "lon": 24.938100814819336, "id": 151006483, "timestamp": 1553963607, "version": 14, "lat": 60.164867401123047, "addr:city": "7", "addr:country": "FI", "addr:housenumber": "7", "addr:housename": null, "addr:postcode": "00120", "addr:street": "Bulevardi", "email": null, "name": "Tony's deli + Street Bar", "opening_hours": null, "operator": null, "phone": null, "url": null, "website": "https:\/\/www.tonysdeli.fi\/", "amenity": "restaurant", "internet_access": null, "pub": null, "source": null, "osm_type": "node" }, "geometry": { "type": "Point", "coordinates": [ 24.938100814819336, 60.164867401123047 ] } },
{ "type": "Feature", "properties": { "changeset": 0, "tags": { "cuisine": "sushi" }, "lon": 24.935625076293945, "id": 151006932, "timestamp": 1496242953, "version": 8, "lat": 60.165149688720703, "addr:city": "Helsinki", "addr:country": "FI", "addr:housenumber": "30", "addr:housename": null, "addr:postcode": "00120", "addr:street": "Fredrikinkatu", "email": null, "name": "Haru Sushi", "opening_hours": "Mo-Fr 11:00-21:00; Sa 12:00-21:00; Su 13:00-21:00", "operator": null, "phone": null, "url": null, "website": "https:\/\/www.facebook.com\/Haru-sushi-1438609973105788\/", "amenity": "restaurant", "internet_access": null, "pub": null, "source": null, "osm_type": "node" }, "geometry": { "type": "Point", "coordinates": [ 24.935625076293945, 60.165149688720703 ] } },
{ "type": "Feature", "properties": { "changeset": 0, "tags": { "cuisine": "oraganic", "lunch": "yes", "opening_hours:lunch": "Mo-Fr 11:00-14:00", "wheelchair": "limited" }, "lon": 24.937530517578125, "id": 247156552, "timestamp": 1553963752, "version": 10, "lat": 60.167869567871094, "addr:city": "Helsinki", "addr:country": "FI", "addr:housenumber": "30", "addr:housename": null, "addr:postcode": "00100", "addr:street": "Yrjönkatu", "email": null, "name": "Kitch", "opening_hours": "Mo-Tu 11:00-22:00; We-Fr 11:00-23:00; Sa 12:00-23:00; PH off", "operator": null, "phone": "+3589666001", "url": null, "website": "https:\/\/kitch.fi\/", "amenity": "restaurant", "internet_access": null, "pub": null, "source": null, "osm_type": "node" }, "geometry": { "type": "Point", "coordinates": [ 24.937530517578125, 60.167869567871094 ] } },
{ "type": "Feature", "properties": { "changeset": 0, "tags": { "contact:website": "http:\/\/www.hardrockcafe.fi\/", "cuisine": "burger", "diet:vegan": "yes", "diet:vegetarian": "yes", "toilets:wheelchair": "yes", "wheelchair": "yes" }, "lon": 24.941402435302734, "id": 256199043, "timestamp": 1552316991, "version": 12, "lat": 60.168907165527344, "addr:city": "Helsinki", "addr:country": "FI", "addr:housenumber": "21", "addr:housename": null, "addr:postcode": "00100", "addr:street": "Aleksanterinkatu", "email": null, "name": "Hard Rock Cafe Helsinki", "opening_hours": "Mo-Su 11:00-24:00; Sa-Su 00:00-02:00", "operator": null, "phone": null, "url": null, "website": "http:\/\/www.hardrockcafe.fi\/", "amenity": "restaurant", "internet_access": null, "pub": null, "source": null, "osm_type": "node" }, "geometry": { "type": "Point", "coordinates": [ 24.941402435302734, 60.168907165527344 ] } },
{ "type": "Feature", "properties": { "changeset": 0, "tags": { "diet:vegan": "yes", "diet:vegetarian": "yes", "smoking": "no", "wheelchair": "yes", "wheelchair:description": "Wheelchair entrance: Kaivopiha 10 C, elevator!" }, "lon": 24.9407958984375, "id": 256200068, "timestamp": 1553963100, "version": 11, "lat": 60.169181823730469, "addr:city": null, "addr:country": null, "addr:housenumber": "3 B", "addr:housename": null, "addr:postcode": null, "addr:street": "Mannerheimintie", "email": null, "name": "UniCafe", "opening_hours": "Mo-Fr 10:30-19:00; Sa 11:30-17:00", "operator": "UniCafe", "phone": null, "url": null, "website": "https:\/\/www.unicafe.fi\/", "amenity": "restaurant", "internet_access": null, "pub": null, "source": null, "osm_type": "node" }, "geometry": { "type": "Point", "coordinates": [ 24.9407958984375, 60.169181823730469 ] } },
{ "type": "Feature", "properties": { "changeset": 0, "tags": { "cuisine": "italian", "level": "1", "takeaway": "yes", "wheelchair": "yes", "wheelchair:description": "In the City Center (= shopping center)." }, "lon": 24.941793441772461, "id": 282612359, "timestamp": 1552226150, "version": 8, "lat": 60.170146942138672, "addr:city": "Helsinki", "addr:country": "FI", "addr:housenumber": "6", "addr:housename": null, "addr:postcode": "00100", "addr:street": "Kaivokatu", "email": null, "name": "Leonardo Bar & Ristorante", "opening_hours": "Mo-Th 11:00-22:00; Fr-Sa 11:00-23:00; Su 12:00-21:00", "operator": null, "phone": null, "url": null, "website": "http:\/\/www.leonardobarristorante.fi", "amenity": "restaurant", "internet_access": null, "pub": null, "source": null, "osm_type": "node" }, "geometry": { "type": "Point", "coordinates": [ 24.941793441772461, 60.170146942138672 ] } },
{ "type": "Feature", "properties": { "changeset": 0, "tags": null, "lon": 24.952203750610352, "id": 309713535, "timestamp": 1553963556, "version": 5, "lat": 60.166805267333984, "addr:city": "Helsinki", "addr:country": "FI", "addr:housenumber": "18", "addr:housename": null, "addr:postcode": "00130", "addr:street": "Eteläranta", "email": "block@dylan.fi", "name": "Block by Dylan", "opening_hours": "Mo-Su 10:00-22:00", "operator": null, "phone": "+358405533000", "url": null, "website": "https:\/\/www.dylan.fi\/", "amenity": "restaurant", "internet_access": null, "pub": null, "source": null, "osm_type": "node" }, "geometry": { "type": "Point", "coordinates": [ 24.952203750610352, 60.166805267333984 ] } },
{ "type": "Feature", "properties": { "changeset": 0, "tags": { "cuisine": "mexican", "outdoor_seating": "no" }, "lon": 24.937383651733398, "id": 310151801, "timestamp": 1555528389, "version": 11, "lat": 60.166366577148438, "addr:city": "Helsinki", "addr:country": "FI", "addr:housenumber": "20", "addr:housename": null, "addr:postcode": "00100", "addr:street": "Annankatu", "email": null, "name": "El Rey", "opening_hours": "Tu-Sa 17:00-23:00", "operator": null, "phone": null, "url": null, "website": "http:\/\/www.elrey.fi\/", "amenity": "restaurant", "internet_access": null, "pub": null, "source": null, "osm_type": "node" }, "geometry": { "type": "Point", "coordinates": [ 24.937383651733398, 60.166366577148438 ] } },
{ "type": "Feature", "properties": { "changeset": 0, "tags": { "cuisine": "chinese" }, "lon": 24.951911926269531, "id": 311096937, "timestamp": 1325088069, "version": 3, "lat": 60.165802001953125, "addr:city": "Helsinki", "addr:country": "FI", "addr:housenumber": null, "addr:housename": null, "addr:postcode": null, "addr:street": null, "email": null, "name": "Dragon Phoenix", "opening_hours": null, "operator": null, "phone": null, "url": null, "website": null, "amenity": "restaurant", "internet_access": null, "pub": null, "source": null, "osm_type": "node" }, "geometry": { "type": "Point", "coordinates": [ 24.951911926269531, 60.165802001953125 ] } },
{ "type": "Feature", "properties": { "changeset": 0, "tags": { "outdoor_seating": "no" }, "lon": 24.950983047485352, "id": 311101212, "timestamp": 1481557935, "version": 5, "lat": 60.166217803955078, "addr:city": "Helsinki", "addr:country": "FI", "addr:housenumber": "20", "addr:housename": null, "addr:postcode": null, "addr:street": "Unioninkatu", "email": null, "name": "Ravintola Bank", "opening_hours": null, "operator": null, "phone": null, "url": null, "website": "http:\/\/www.ravintolabank.fi\/", "amenity": "restaurant", "internet_access": null, "pub": null, "source": null, "osm_type": "node" }, "geometry": { "type": "Point", "coordinates": [ 24.950983047485352, 60.166217803955078 ] } },
{ "type": "Feature", "properties": { "changeset": 0, "tags": { "cuisine": "thai" }, "lon": 24.947216033935547, "id": 324163194, "timestamp": 1357641864, "version": 4, "lat": 60.172344207763672, "addr:city": "Helsinki", "addr:country": "FI", "addr:housenumber": null, "addr:housename": null, "addr:postcode": null, "addr:street": null, "email": null, "name": "Ryan Thai", "opening_hours": null, "operator": null, "phone": null, "url": null, "website": null, "amenity": "restaurant", "internet_access": null, "pub": null, "source": null, "osm_type": "node" }, "geometry": { "type": "Point", "coordinates": [ 24.947216033935547, 60.172344207763672 ] } },
{ "type": "Feature", "properties": { "changeset": 0, "tags": { "cuisine": "japanese" }, "lon": 24.952838897705078, "id": 344366685, "timestamp": 1553963590, "version": 7, "lat": 60.174243927001953, "addr:city": "Helsinki", "addr:country": "FI", "addr:housenumber": "16", "addr:housename": null, "addr:postcode": "00170", "addr:street": "Snellmankatu", "email": null, "name": "Zen Sushi", "opening_hours": null, "operator": null, "phone": null, "url": null, "website": "https:\/\/zensushi.fi\/", "amenity": "restaurant", "internet_access": null, "pub": null, "source": null, "osm_type": "node" }, "geometry": { "type": "Point", "coordinates": [ 24.952838897705078, 60.174243927001953 ] } },
{ "type": "Feature", "properties": { "changeset": 0, "tags": { "cuisine": "pizza", "level": "1" }, "lon": 24.939008712768555, "id": 389078466, "timestamp": 1553963704, "version": 6, "lat": 60.169170379638672, "addr:city": "Helsinki", "addr:country": "FI", "addr:housenumber": "18", "addr:housename": "Forum", "addr:postcode": null, "addr:street": "Mannerheimintie", "email": "info@classicpizza.fi", "name": "Classic Pizza", "opening_hours": "Mo-Th 10:30-22:00; Fr 10:30-24:00; Sa 11:00-24:00; Su 11:00-22:00", "operator": null, "phone": "+358 44 033 7609", "url": null, "website": "https:\/\/classicpizza.fi\/", "amenity": "restaurant", "internet_access": null, "pub": null, "source": null, "osm_type": "node" }, "geometry": { "type": "Point", "coordinates": [ 24.939008712768555, 60.169170379638672 ] } },
{ "type": "Feature", "properties": { "changeset": 0, "tags": { "cuisine": "nepalese", "diet:vegetarian": "yes", "name:en": "Basecamp", "toilets:wheelchair": "no", "wheelchair": "limited", "wheelchair:description": "There are 6 tables suitable for wheelchair users downstairs; most of the restaurant is located upstairs with 20 steps. \/ Esteetön sisäänkäynti ja alakerta. Yläkertaan 20 rappusta." }, "lon": 24.950460433959961, "id": 407891148, "timestamp": 1538310069, "version": 14, "lat": 60.177360534667969, "addr:city": "Helsinki", "addr:country": "FI", "addr:housenumber": "3", "addr:housename": null, "addr:postcode": "00530", "addr:street": "Siltasaarenkatu", "email": null, "name": "Himshikhar (Nepalese kitchen)", "opening_hours": "Mo-Fr 12:00-23:00; Sa-Su 12:00-23:00", "operator": null, "phone": "09-5626995", "url": null, "website": "http:\/\/www.basecampnepal.fi\/hakaniemi\/fi\/index.php", "amenity": "restaurant", "internet_access": null, "pub": null, "source": null, "osm_type": "node" }, "geometry": { "type": "Point", "coordinates": [ 24.950460433959961, 60.177360534667969 ] } },
{ "type": "Feature", "properties": { "changeset": 0, "tags": { "cuisine": "chinese" }, "lon": 24.950777053833008, "id": 410088113, "timestamp": 1366042434, "version": 3, "lat": 60.17425537109375, "addr:city": "Helsinki", "addr:country": "FI", "addr:housenumber": null, "addr:housename": null, "addr:postcode": "00170", "addr:street": null, "email": null, "name": "Family", "opening_hours": "Mo-Fr 11:00-22:00; Sa-Su 12:00-22:00", "operator": null, "phone": null, "url": null, "website": null, "amenity": "restaurant", "internet_access": null, "pub": null, "source": null, "osm_type": "node" }, "geometry": { "type": "Point", "coordinates": [ 24.950777053833008, 60.17425537109375 ] } },
{ "type": "Feature", "properties": { "changeset": 0, "tags": { "name:sv": "Restaurang Savoy", "toilets:wheelchair": "no", "wheelchair": "yes", "wikidata": "Q29982245" }, "lon": 24.94727897644043, "id": 411307530, "timestamp": 1541693440, "version": 7, "lat": 60.166957855224609, "addr:city": "Helsinki", "addr:country": "FI", "addr:housenumber": "14", "addr:housename": null, "addr:postcode": "00130", "addr:street": "Eteläesplanadi", "email": "myyntipalvelu@royalravintolat.com", "name": "Ravintola Savoy", "opening_hours": null, "operator": null, "phone": "+358961285300", "url": null, "website": "http:\/\/www.ravintolasavoy.fi", "amenity": "restaurant", "internet_access": null, "pub": null, "source": null, "osm_type": "node" }, "geometry": { "type": "Point", "coordinates": [ 24.94727897644043, 60.166957855224609 ] } },
{ "type": "Feature", "properties": { "changeset": 0, "tags": { "cuisine": "russian" }, "lon": 24.952281951904297, "id": 448156822, "timestamp": 1372826251, "version": 6, "lat": 60.168670654296875, "addr:city": "Helsinki", "addr:country": "FI", "addr:housenumber": null, "addr:housename": null, "addr:postcode": "00170", "addr:street": "Sofiankatu", "email": null, "name": "Samovar", "opening_hours": "\"for request only\"", "operator": null, "phone": null, "url": null, "website": "http:\/\/www.asrestaurants.com\/FI\/ravintolat\/samovar", "amenity": "restaurant", "internet_access": null, "pub": null, "source": null, "osm_type": "node" }, "geometry": { "type": "Point", "coordinates": [ 24.952281951904297, 60.168670654296875 ] } },
{ "type": "Feature", "properties": { "changeset": 0, "tags": { "cuisine": "pizza", "lunch": "yes", "opening_hours:lunch": "Mo-Fr 11:30-15:00" }, "lon": 24.952033996582031, "id": 448156823, "timestamp": 1533464914, "version": 9, "lat": 60.168476104736328, "addr:city": "Helsinki", "addr:country": "FI", "addr:housenumber": "4", "addr:housename": null, "addr:postcode": "00170", "addr:street": "Sofiankatu", "email": "viatribunali@sonofapunch.com", "name": "Via Tribunali", "opening_hours": "Mo-Th 11:00-22:00; Fr 11:00-00:00; Sa 12:00-00:00; Su 12:00-20:00", "operator": null, "phone": "+358 50 3288 664", "url": null, "website": "http:\/\/www.viatribunali.fi\/", "amenity": "restaurant", "internet_access": null, "pub": null, "source": null, "osm_type": "node" }, "geometry": { "type": "Point", "coordinates": [ 24.952033996582031, 60.168476104736328 ] } },
{ "type": "Feature", "properties": { "changeset": 0, "tags": null, "lon": 24.947294235229492, "id": 448156834, "timestamp": 1543555868, "version": 4, "lat": 60.168327331542969, "addr:city": "Helsinki", "addr:country": "FI", "addr:housenumber": "2", "addr:housename": null, "addr:postcode": "00100", "addr:street": "Kluuvikatu", "email": null, "name": "Ravintola EMO", "opening_hours": "Mo-Fr 11:30-00:00; Sa 14:00-01:00", "operator": null, "phone": "+358105050900", "url": null, "website": "http:\/\/www.emo-Ravintola.fi", "amenity": "restaurant", "internet_access": null, "pub": null, "source": null, "osm_type": "node" }, "geometry": { "type": "Point", "coordinates": [ 24.947294235229492, 60.168327331542969 ] } },
{ "type": "Feature", "properties": { "changeset": 0, "tags": null, "lon": 24.940418243408203, "id": 469204783, "timestamp": 1537340319, "version": 9, "lat": 60.164199829101562, "addr:city": "Helsinki", "addr:country": null, "addr:housenumber": "10", "addr:housename": null, "addr:postcode": null, "addr:street": "Annankatu", "email": null, "name": "Mo Cafe", "opening_hours": null, "operator": null, "phone": null, "url": null, "website": "mocafe.fi", "amenity": "restaurant", "internet_access": null, "pub": null, "source": null, "osm_type": "node" }, "geometry": { "type": "Point", "coordinates": [ 24.940418243408203, 60.164199829101562 ] } },
{ "type": "Feature", "properties": { "changeset": 0, "tags": { "cuisine": "pizza" }, "lon": 24.952793121337891, "id": 548577328, "timestamp": 1492211061, "version": 7, "lat": 60.174468994140625, "addr:city": "Helsinki", "addr:country": "FI", "addr:housenumber": "16", "addr:housename": null, "addr:postcode": "00170", "addr:street": "Snellmaninkatu", "email": null, "name": "Pizzeria Pompei", "opening_hours": "Mo-Fr 11:00-21:00; Sa-Su 12:00-21:00", "operator": null, "phone": null, "url": "http:\/\/www.korttelimenu.com\/rest.php?lang=se&id=2152", "website": "http:\/\/ravintolapompei.com\/", "amenity": "restaurant", "internet_access": null, "pub": null, "source": null, "osm_type": "node" }, "geometry": { "type": "Point", "coordinates": [ 24.952793121337891, 60.174468994140625 ] } },
{ "type": "Feature", "properties": { "changeset": 0, "tags": { "cuisine": "regional" }, "lon": 24.952632904052734, "id": 600082952, "timestamp": 1366042435, "version": 5, "lat": 60.168830871582031, "addr:city": "Helsinki", "addr:country": "FI", "addr:housenumber": null, "addr:housename": null, "addr:postcode": "00170", "addr:street": null, "email": null, "name": "Savotta", "opening_hours": "Mo-Sa 12:00-23:00; Su 17:00-22:00", "operator": null, "phone": null, "url": null, "website": "http:\/\/www.asrestaurants.com\/FI\/ravintolat\/savotta", "amenity": "restaurant", "internet_access": null, "pub": null, "source": null, "osm_type": "node" }, "geometry": { "type": "Point", "coordinates": [ 24.952632904052734, 60.168830871582031 ] } },
{ "type": "Feature", "properties": { "changeset": 0, "tags": { "diet:vegan": "yes", "diet:vegetarian": "yes", "lunch": "yes", "outdoor_seating": "no" }, "lon": 24.946725845336914, "id": 600091157, "timestamp": 1551112033, "version": 7, "lat": 60.1710205078125, "addr:city": "Helsinki", "addr:country": "FI", "addr:housenumber": "3", "addr:housename": null, "addr:postcode": "00100", "addr:street": "Kaisaniemenkatu", "email": "lost@lostinhelsinki.fi", "name": "Lost In Helsinki", "opening_hours": "Mo-Tu 15:00-24:00; We-Th 15:00-01:00; Fr-Sa 15:00-02:00; Su 15:00-24:00", "operator": null, "phone": "+358 (9) 652 147", "url": null, "website": "https:\/\/www.lostinhelsinki.fi\/", "amenity": "restaurant", "internet_access": null, "pub": null, "source": null, "osm_type": "node" }, "geometry": { "type": "Point", "coordinates": [ 24.946725845336914, 60.1710205078125 ] } },
{ "type": "Feature", "properties": { "changeset": 0, "tags": { "cuisine": "mexican", "wheelchair": "no" }, "lon": 24.947914123535156, "id": 600394449, "timestamp": 1487418450, "version": 6, "lat": 60.166355133056641, "addr:city": "Helsinki", "addr:country": "FI", "addr:housenumber": null, "addr:housename": null, "addr:postcode": null, "addr:street": "Kasarmikatu", "email": null, "name": "Cantina West", "opening_hours": null, "operator": null, "phone": null, "url": "http:\/\/www.cantinawest.net", "website": null, "amenity": "restaurant", "internet_access": null, "pub": null, "source": null, "osm_type": "node" }, "geometry": { "type": "Point", "coordinates": [ 24.947914123535156, 60.166355133056641 ] } },
{ "type": "Feature", "properties": { "changeset": 0, "tags": { "cuisine": "regional", "wheelchair": "yes" }, "lon": 24.950048446655273, "id": 600394451, "timestamp": 1490569849, "version": 5, "lat": 60.167949676513672, "addr:city": "Helsinki", "addr:country": "FI", "addr:housenumber": "21", "addr:housename": null, "addr:postcode": "00100", "addr:street": "Pohjoisesplanadi", "email": null, "name": "Ravintola Aino (Finnish cuisine)", "opening_hours": null, "operator": null, "phone": null, "url": null, "website": "http:\/\/ravintolaaino.fi\/", "amenity": "restaurant", "internet_access": null, "pub": null, "source": null, "osm_type": "node" }, "geometry": { "type": "Point", "coordinates": [ 24.950048446655273, 60.167949676513672 ] } },
{ "type": "Feature", "properties": { "changeset": 0, "tags": null, "lon": 24.951284408569336, "id": 600394453, "timestamp": 1553963306, "version": 6, "lat": 60.167984008789062, "addr:city": "Helsinki", "addr:country": null, "addr:housenumber": "17", "addr:housename": null, "addr:postcode": "00170", "addr:street": "Pohjoisesplanadi", "email": null, "name": "Roster Helsinki", "opening_hours": null, "operator": null, "phone": null, "url": null, "website": "https:\/\/rosterhelsinki.com\/", "amenity": "restaurant", "internet_access": null, "pub": null, "source": null, "osm_type": "node" }, "geometry": { "type": "Point", "coordinates": [ 24.951284408569336, 60.167984008789062 ] } },
{ "type": "Feature", "properties": { "changeset": 0, "tags": null, "lon": 24.944314956665039, "id": 600428205, "timestamp": 1555372964, "version": 6, "lat": 60.165664672851562, "addr:city": "Helsinki", "addr:country": "FI", "addr:housenumber": "10", "addr:housename": null, "addr:postcode": "00130", "addr:street": "Ludviginkatu", "email": null, "name": "Grotesk Restaurant & Bar", "opening_hours": "Tu-Sa 17:00-24:00", "operator": null, "phone": null, "url": null, "website": "https:\/\/www.grotesk.fi\/", "amenity": "restaurant", "internet_access": null, "pub": null, "source": null, "osm_type": "node" }, "geometry": { "type": "Point", "coordinates": [ 24.944314956665039, 60.165664672851562 ] } },
{ "type": "Feature", "properties": { "changeset": 0, "tags": { "wheelchair": "yes" }, "lon": 24.943981170654297, "id": 603743672, "timestamp": 1481084932, "version": 3, "lat": 60.167354583740234, "addr:city": "Helsinki", "addr:country": null, "addr:housenumber": "2", "addr:housename": null, "addr:postcode": "00130", "addr:street": "Pohjoisesplanadi", "email": null, "name": "Ravintola Teatteri", "opening_hours": null, "operator": null, "phone": null, "url": "http:\/\/www.royalravintolat.com\/teatteri\/", "website": "http:\/\/www.teatteri.fi\/", "amenity": "restaurant", "internet_access": null, "pub": null, "source": null, "osm_type": "node" }, "geometry": { "type": "Point", "coordinates": [ 24.943981170654297, 60.167354583740234 ] } },
{ "type": "Feature", "properties": { "changeset": 0, "tags": { "cuisine": "indian", "wheelchair": "yes" }, "lon": 24.94471549987793, "id": 603743681, "timestamp": 1368871937, "version": 4, "lat": 60.16650390625, "addr:city": "Helsinki", "addr:country": "FI", "addr:housenumber": null, "addr:housename": null, "addr:postcode": "00100", "addr:street": "Eteläesplanadi", "email": null, "name": "Samrat", "opening_hours": null, "operator": null, "phone": null, "url": null, "website": "http:\/\/www.samrat.fi\/", "amenity": "restaurant", "internet_access": null, "pub": null, "source": null, "osm_type": "node" }, "geometry": { "type": "Point", "coordinates": [ 24.94471549987793, 60.16650390625 ] } },
{ "type": "Feature", "properties": { "changeset": 0, "tags": { "wheelchair": "no" }, "lon": 24.944494247436523, "id": 603743685, "timestamp": 1368871866, "version": 3, "lat": 60.166709899902344, "addr:city": "Helsinki", "addr:country": "FI", "addr:housenumber": null, "addr:housename": null, "addr:postcode": "00100", "addr:street": "Eteläesplanadi", "email": null, "name": "Manhattan steak house", "opening_hours": null, "operator": null, "phone": null, "url": null, "website": "http:\/\/www.manhattansteakhouse.fi\/", "amenity": "restaurant", "internet_access": null, "pub": null, "source": null, "osm_type": "node" }, "geometry": { "type": "Point", "coordinates": [ 24.944494247436523, 60.166709899902344 ] } },
{ "type": "Feature", "properties": { "changeset": 0, "tags": { "smoking": "no", "wheelchair": "yes" }, "lon": 24.945566177368164, "id": 603743691, "timestamp": 1553963769, "version": 7, "lat": 60.167011260986328, "addr:city": "Helsinki", "addr:country": "FI", "addr:housenumber": "20", "addr:housename": null, "addr:postcode": "00130", "addr:street": "Eteläesplanadi", "email": null, "name": "Ravintola Bronda", "opening_hours": null, "operator": null, "phone": "+358 10 322 9388", "url": null, "website": "https:\/\/ravintolabronda.fi\/", "amenity": "restaurant", "internet_access": null, "pub": null, "source": null, "osm_type": "node" }, "geometry": { "type": "Point", "coordinates": [ 24.945566177368164, 60.167011260986328 ] } },
{ "type": "Feature", "properties": { "changeset": 0, "tags": { "cuisine": "regional", "established": "2014", "lunch": "yes" }, "lon": 24.949331283569336, "id": 603743719, "timestamp": 1553962985, "version": 5, "lat": 60.167072296142578, "addr:city": "Helsinki", "addr:country": "FI", "addr:housenumber": null, "addr:housename": null, "addr:postcode": "00100", "addr:street": "Eteläesplanadi", "email": null, "name": "Pompier ESPA", "opening_hours": null, "operator": null, "phone": null, "url": null, "website": "https:\/\/pompier.fi\/espa\/", "amenity": "restaurant", "internet_access": null, "pub": null, "source": null, "osm_type": "node" }, "geometry": { "type": "Point", "coordinates": [ 24.949331283569336, 60.167072296142578 ] } },
{ "type": "Feature", "properties": { "changeset": 0, "tags": { "cuisine": "japanese", "wheelchair": "no" }, "lon": 24.950153350830078, "id": 603743724, "timestamp": 1465118710, "version": 4, "lat": 60.167106628417969, "addr:city": "Helsinki", "addr:country": "FI", "addr:housenumber": null, "addr:housename": null, "addr:postcode": "00100", "addr:street": "Eteläesplanadi", "email": null, "name": "Kita", "opening_hours": null, "operator": null, "phone": null, "url": null, "website": "http:\/\/www.kitaravintola.fi\/", "amenity": "restaurant", "internet_access": null, "pub": null, "source": null, "osm_type": "node" }, "geometry": { "type": "Point", "coordinates": [ 24.950153350830078, 60.167106628417969 ] } },
{ "type": "Feature", "properties": { "changeset": 0, "tags": { "cuisine": "regional", "wheelchair": "yes" }, "lon": 24.952001571655273, "id": 603743752, "timestamp": 1553963216, "version": 4, "lat": 60.168041229248047, "addr:city": null, "addr:country": null, "addr:housenumber": null, "addr:housename": null, "addr:postcode": null, "addr:street": null, "email": null, "name": "Salutorget", "opening_hours": null, "operator": null, "phone": null, "url": null, "website": "https:\/\/www.royalravintolat.com\/salutorget\/", "amenity": "restaurant", "internet_access": null, "pub": null, "source": null, "osm_type": "node" }, "geometry": { "type": "Point", "coordinates": [ 24.952001571655273, 60.168041229248047 ] } },
{ "type": "Feature", "properties": { "changeset": 0, "tags": { "cuisine": "italian", "wheelchair": "yes" }, "lon": 24.9427490234375, "id": 603767090, "timestamp": 1553962817, "version": 7, "lat": 60.166172027587891, "addr:city": "Helsinki", "addr:country": "FI", "addr:housenumber": "2-4", "addr:housename": null, "addr:postcode": "00120", "addr:street": "Bulevardi", "email": null, "name": "Toscanini", "opening_hours": "Mo-Fr 11:00-14:30,17:00-00:00; Sa 12:00-00:00; Su 17:00-23:00", "operator": null, "phone": null, "url": null, "website": "https:\/\/www.toscanini.fi\/", "amenity": "restaurant", "internet_access": null, "pub": null, "source": null, "osm_type": "node" }, "geometry": { "type": "Point", "coordinates": [ 24.9427490234375, 60.166172027587891 ] } },
{ "type": "Feature", "properties": { "changeset": 0, "tags": null, "lon": 24.951032638549805, "id": 606944617, "timestamp": 1364304338, "version": 2, "lat": 60.165924072265625, "addr:city": "Helsinki", "addr:country": "FI", "addr:housenumber": null, "addr:housename": null, "addr:postcode": "00130", "addr:street": null, "email": null, "name": "Bank bar and bistro", "opening_hours": null, "operator": "Palace Kämp", "phone": null, "url": null, "website": "http:\/\/www.palacekamp.fi\/ravintolat\/bank_bar_bistro\/", "amenity": "restaurant", "internet_access": null, "pub": null, "source": null, "osm_type": "node" }, "geometry": { "type": "Point", "coordinates": [ 24.951032638549805, 60.165924072265625 ] } },
{ "type": "Feature", "properties": { "changeset": 0, "tags": { "wheelchair": "no" }, "lon": 24.946025848388672, "id": 606996894, "timestamp": 1498060777, "version": 7, "lat": 60.166568756103516, "addr:city": "Helsinki", "addr:country": "FI", "addr:housenumber": null, "addr:housename": null, "addr:postcode": null, "addr:street": "Korkeavuorenkatu", "email": null, "name": "Corso", "opening_hours": null, "operator": null, "phone": null, "url": null, "website": null, "amenity": "restaurant", "internet_access": null, "pub": null, "source": null, "osm_type": "node" }, "geometry": { "type": "Point", "coordinates": [ 24.946025848388672, 60.166568756103516 ] } },
{ "type": "Feature", "properties": { "changeset": 0, "tags": { "cuisine": "pizza", "shop": "beverages", "wheelchair": "yes" }, "lon": 24.947277069091797, "id": 606996920, "timestamp": 1488427372, "version": 4, "lat": 60.168781280517578, "addr:city": "Helsinki", "addr:country": "FI", "addr:housenumber": "42", "addr:housename": null, "addr:postcode": "00100", "addr:street": "Galleria Esplanad, Aleksanterinkatu", "email": null, "name": "Jungle Juice Bar", "opening_hours": null, "operator": null, "phone": null, "url": null, "website": "http:\/\/www.junglejuice.fi\/", "amenity": "restaurant", "internet_access": null, "pub": null, "source": null, "osm_type": "node" }, "geometry": { "type": "Point", "coordinates": [ 24.947277069091797, 60.168781280517578 ] } },
{ "type": "Feature", "properties": { "changeset": 0, "tags": { "cuisine": "nepalese" }, "lon": 24.946996688842773, "id": 606996925, "timestamp": 1503114820, "version": 5, "lat": 60.169918060302734, "addr:city": "Helsinki", "addr:country": "FI", "addr:housenumber": "5", "addr:housename": null, "addr:postcode": "00100", "addr:street": "Yliopistonkatu", "email": null, "name": "Base Camp (Nepalese cuisine)", "opening_hours": "Mo-Th 10:30-23:00, Fr 10:30-24:00, Sa 11:00-24:00, Su 12:00-23:00", "operator": null, "phone": null, "url": null, "website": "http:\/\/basecampnepal.fi\/", "amenity": "restaurant", "internet_access": null, "pub": null, "source": null, "osm_type": "node" }, "geometry": { "type": "Point", "coordinates": [ 24.946996688842773, 60.169918060302734 ] } },
{ "type": "Feature", "properties": { "changeset": 0, "tags": { "cuisine": "noodle;japanese" }, "lon": 24.946840286254883, "id": 606996926, "timestamp": 1503114988, "version": 6, "lat": 60.169921875, "addr:city": "Helsinki", "addr:country": "FI", "addr:housenumber": "5", "addr:housename": null, "addr:postcode": "00100", "addr:street": "Yliopistonkatu", "email": null, "name": "Momotoko", "opening_hours": "Mo-Th 11:00-21:00, Fr 11:00-22:00, Sa 12:00-22:00, Su 12:00-20:00", "operator": null, "phone": null, "url": null, "website": "http:\/\/momotoko.com\/", "amenity": "restaurant", "internet_access": null, "pub": null, "source": null, "osm_type": "node" }, "geometry": { "type": "Point", "coordinates": [ 24.946840286254883, 60.169921875 ] } },
{ "type": "Feature", "properties": { "changeset": 0, "tags": { "cuisine": "french", "delivery": "no", "wheelchair": "yes" }, "lon": 24.947214126586914, "id": 606996930, "timestamp": 1502390900, "version": 5, "lat": 60.169479370117188, "addr:city": "Helsinki", "addr:country": "FI", "addr:housenumber": "8", "addr:housename": null, "addr:postcode": "00100", "addr:street": "Kluuvikatu", "email": null, "name": "Frans & Amélie", "opening_hours": "Mo-Th 11:00-23:00; Fr 11:00-00:00; Sa 12:00-00:00; Su 13:00-19:00", "operator": null, "phone": "+358 10 7855 104", "url": null, "website": "https:\/\/www.raflaamo.fi\/en\/helsinki\/frans-amelie-helsinki", "amenity": "restaurant", "internet_access": "wlan", "pub": null, "source": null, "osm_type": "node" }, "geometry": { "type": "Point", "coordinates": [ 24.947214126586914, 60.169479370117188 ] } },
{ "type": "Feature", "properties": { "changeset": 0, "tags": { "brunch": "yes", "diet:vegan": "yes", "diet:vegetarian": "yes", "opening_hours:brunch": "Su 12:30-15:00", "wheelchair": "yes" }, "lon": 24.947048187255859, "id": 610214073, "timestamp": 1549717672, "version": 4, "lat": 60.169700622558594, "addr:city": "Helsinki", "addr:country": "FI", "addr:housenumber": null, "addr:housename": null, "addr:postcode": null, "addr:street": null, "email": null, "name": "Memphis", "opening_hours": null, "operator": null, "phone": null, "url": null, "website": "http:\/\/www.memphis.fi\/", "amenity": "restaurant", "internet_access": null, "pub": null, "source": null, "osm_type": "node" }, "geometry": { "type": "Point", "coordinates": [ 24.947048187255859, 60.169700622558594 ] } },
{ "type": "Feature", "properties": { "changeset": 0, "tags": { "cuisine": "regional" }, "lon": 24.945358276367188, "id": 611569191, "timestamp": 1523835110, "version": 3, "lat": 60.168525695800781, "addr:city": "Helsinki", "addr:country": null, "addr:housenumber": "4", "addr:housename": null, "addr:postcode": "00100", "addr:street": "Mikonkatu", "email": null, "name": "Shanghai Cowboy", "opening_hours": null, "operator": null, "phone": null, "url": null, "website": "https:\/\/raflaamo.fi\/fi\/helsinki\/shanghai-cowboy", "amenity": "restaurant", "internet_access": null, "pub": null, "source": null, "osm_type": "node" }, "geometry": { "type": "Point", "coordinates": [ 24.945358276367188, 60.168525695800781 ] } },
{ "type": "Feature", "properties": { "changeset": 0, "tags": { "brunch": "yes", "level": "1;2", "lunch:menu": "Mo-Fr 10:30-15:00", "reservation": "yes", "room": "yes", "wheelchair": "yes" }, "lon": 24.939689636230469, "id": 615217034, "timestamp": 1544894347, "version": 7, "lat": 60.168216705322266, "addr:city": "Helsinki", "addr:country": "FI", "addr:housenumber": "1", "addr:housename": "Forum", "addr:postcode": "00100", "addr:street": "Kalevankatu", "email": "info@ravintolakiila.fi", "name": "Kiila", "opening_hours": "Mo-Tu 07:00-22:00; We-Th 07:00-23:00; Fr 07:00-02:00; Sa 08:30-04:00; Su 09:00-21:00", "operator": null, "phone": "+358 40 511 8952", "url": null, "website": "https:\/\/www.ravintolakiila.fi\/", "amenity": "restaurant", "internet_access": null, "pub": null, "source": null, "osm_type": "node" }, "geometry": { "type": "Point", "coordinates": [ 24.939689636230469, 60.168216705322266 ] } },
{ "type": "Feature", "properties": { "changeset": 0, "tags": { "brunch": "yes", "cuisine": "american", "diet:vegetarian": "yes", "opening_hours:brunch": "Sa-Su 09:00-14:00" }, "lon": 24.936473846435547, "id": 648237234, "timestamp": 1551022985, "version": 10, "lat": 60.165775299072266, "addr:city": "Helsinki", "addr:country": "FI", "addr:housenumber": "13", "addr:housename": null, "addr:postcode": "00120", "addr:street": "Lönnrotinkatu", "email": null, "name": "Naughty BRGR", "opening_hours": "Mo-Sa 11:00-22:00; Su 12:00-19:00", "operator": null, "phone": "+358 50 556 3367", "url": null, "website": "https:\/\/m.facebook.com\/NBRGR", "amenity": "restaurant", "internet_access": null, "pub": null, "source": "survey", "osm_type": "node" }, "geometry": { "type": "Point", "coordinates": [ 24.936473846435547, 60.165775299072266 ] } },
{ "type": "Feature", "properties": { "changeset": 0, "tags": { "cuisine": "mexican" }, "lon": 24.937376022338867, "id": 648237235, "timestamp": 1550231472, "version": 10, "lat": 60.166126251220703, "addr:city": "Helsinki", "addr:country": "FI", "addr:housenumber": "9", "addr:housename": null, "addr:postcode": "00120", "addr:street": "Lönnrotinkatu", "email": null, "name": "Chalupa", "opening_hours": "Mo-Fr 10:30-21:30; Sa,Su 11:30-21:30", "operator": null, "phone": null, "url": null, "website": "http:\/\/chalupa.fi\/", "amenity": "restaurant", "internet_access": null, "pub": null, "source": null, "osm_type": "node" }, "geometry": { "type": "Point", "coordinates": [ 24.937376022338867, 60.166126251220703 ] } },
{ "type": "Feature", "properties": { "changeset": 0, "tags": { "toilets:wheelchair": "yes", "wheelchair": "yes" }, "lon": 24.941438674926758, "id": 648237236, "timestamp": 1505576923, "version": 7, "lat": 60.167495727539062, "addr:city": "Helsinki", "addr:country": null, "addr:housenumber": "10", "addr:housename": null, "addr:postcode": "00100", "addr:street": "Mannerheimintie", "email": null, "name": "Scandic Marski", "opening_hours": null, "operator": null, "phone": null, "url": null, "website": "https:\/\/www.scandichotels.com\/hotels\/finland\/helsinki\/scandic-marski\/restaurant-bar\/restaurant", "amenity": "restaurant", "internet_access": null, "pub": null, "source": null, "osm_type": "node" }, "geometry": { "type": "Point", "coordinates": [ 24.941438674926758, 60.167495727539062 ] } },
{ "type": "Feature", "properties": { "changeset": 0, "tags": { "cuisine": "regional", "toilets:wheelchair": "yes", "wheelchair": "yes" }, "lon": 24.936803817749023, "id": 673606093, "timestamp": 1505217522, "version": 7, "lat": 60.166751861572266, "addr:city": "Helsinki", "addr:country": "FI", "addr:housenumber": "22", "addr:housename": null, "addr:postcode": "00100", "addr:street": "Annankatu", "email": null, "name": "Lappi ravintola", "opening_hours": "Mo-Sa 12:00-00:00", "operator": null, "phone": "+358 9 645 550", "url": null, "website": "http:\/\/www.lappires.com\/", "amenity": "restaurant", "internet_access": null, "pub": null, "source": null, "osm_type": "node" }, "geometry": { "type": "Point", "coordinates": [ 24.936803817749023, 60.166751861572266 ] } },
{ "type": "Feature", "properties": { "changeset": 0, "tags": { "cuisine": "steak_house", "smoking": "no", "wheelchair": "yes" }, "lon": 24.945661544799805, "id": 744699551, "timestamp": 1553963088, "version": 7, "lat": 60.166412353515625, "addr:city": "Helsinki", "addr:country": null, "addr:housenumber": "34", "addr:housename": null, "addr:postcode": "00130", "addr:street": "Korkeavuorenkatu", "email": null, "name": "Stefan's Steakhouse", "opening_hours": "Mo-Th 16:00-23:00; Fr 16:00-24:00; Sa 13:00-24:00; Su 14:00-22:00", "operator": null, "phone": null, "url": null, "website": "https:\/\/www.ravintola.fi\/stefans_helsinki", "amenity": "restaurant", "internet_access": null, "pub": null, "source": null, "osm_type": "node" }, "geometry": { "type": "Point", "coordinates": [ 24.945661544799805, 60.166412353515625 ] } },
{ "type": "Feature", "properties": { "changeset": 0, "tags": { "diet:vegan": "yes", "diet:vegetarian": "yes" }, "lon": 24.95271110534668, "id": 1007988735, "timestamp": 1550996665, "version": 2, "lat": 60.172985076904297, "addr:city": null, "addr:country": null, "addr:housenumber": null, "addr:housename": null, "addr:postcode": null, "addr:street": null, "email": null, "name": "Soc&Kom", "opening_hours": null, "operator": "Unicafe", "phone": null, "url": null, "website": null, "amenity": "restaurant", "internet_access": null, "pub": null, "source": null, "osm_type": "node" }, "geometry": { "type": "Point", "coordinates": [ 24.95271110534668, 60.172985076904297 ] } },
{ "type": "Feature", "properties": { "changeset": 0, "tags": { "diet:vegan": "yes", "diet:vegetarian": "yes" }, "lon": 24.953378677368164, "id": 1007988748, "timestamp": 1550996652, "version": 2, "lat": 60.175662994384766, "addr:city": null, "addr:country": null, "addr:housenumber": null, "addr:housename": null, "addr:postcode": null, "addr:street": null, "email": null, "name": "Olivia", "opening_hours": null, "operator": "Unicafe", "phone": null, "url": null, "website": null, "amenity": "restaurant", "internet_access": null, "pub": null, "source": null, "osm_type": "node" }, "geometry": { "type": "Point", "coordinates": [ 24.953378677368164, 60.175662994384766 ] } },
{ "type": "Feature", "properties": { "changeset": 0, "tags": { "diet:vegan": "yes", "diet:vegetarian": "yes" }, "lon": 24.949350357055664, "id": 1007988753, "timestamp": 1550996558, "version": 3, "lat": 60.171947479248047, "addr:city": null, "addr:country": null, "addr:housenumber": null, "addr:housename": null, "addr:postcode": null, "addr:street": null, "email": null, "name": "Topelias", "opening_hours": null, "operator": "Unicafe", "phone": null, "url": null, "website": null, "amenity": "restaurant", "internet_access": null, "pub": null, "source": null, "osm_type": "node" }, "geometry": { "type": "Point", "coordinates": [ 24.949350357055664, 60.171947479248047 ] } },
{ "type": "Feature", "properties": { "changeset": 0, "tags": { "diet:vegan": "yes", "diet:vegetarian": "yes", "name:da": "Helsignfors unversitet Hvudbygganden", "name:en": "Main Building Helsinki University", "name:nn": "Helsingfors unversitet Huvudbyggnaden", "name:sv": "Huvudbyggnaden", "wheelchair": "yes" }, "lon": 24.950021743774414, "id": 1007988759, "timestamp": 1550996542, "version": 4, "lat": 60.169155120849609, "addr:city": null, "addr:country": null, "addr:housenumber": null, "addr:housename": null, "addr:postcode": null, "addr:street": null, "email": null, "name": "Päärakennus", "opening_hours": null, "operator": "Unicafe", "phone": null, "url": null, "website": null, "amenity": "restaurant", "internet_access": null, "pub": null, "source": null, "osm_type": "node" }, "geometry": { "type": "Point", "coordinates": [ 24.950021743774414, 60.169155120849609 ] } },
{ "type": "Feature", "properties": { "changeset": 0, "tags": { "diet:vegan": "yes", "diet:vegetarian": "yes" }, "lon": 24.949306488037109, "id": 1007988780, "timestamp": 1553839336, "version": 3, "lat": 60.172653198242188, "addr:city": "Helsinki", "addr:country": null, "addr:housenumber": "39", "addr:housename": null, "addr:postcode": "00100", "addr:street": "Fabianinkatu", "email": null, "name": "Unicafe Metsätalo", "opening_hours": null, "operator": "Unicafe", "phone": null, "url": null, "website": null, "amenity": "restaurant", "internet_access": null, "pub": null, "source": null, "osm_type": "node" }, "geometry": { "type": "Point", "coordinates": [ 24.949306488037109, 60.172653198242188 ] } },
{ "type": "Feature", "properties": { "changeset": 0, "tags": { "diet:vegan": "yes", "diet:vegetarian": "yes", "lunch": "yes", "wheelchair": "yes" }, "lon": 24.948911666870117, "id": 1007988785, "timestamp": 1550996513, "version": 4, "lat": 60.170074462890625, "addr:city": null, "addr:country": null, "addr:housenumber": null, "addr:housename": null, "addr:postcode": null, "addr:street": null, "email": null, "name": "Porthania", "opening_hours": null, "operator": "Unicafe", "phone": null, "url": null, "website": null, "amenity": "restaurant", "internet_access": null, "pub": null, "source": null, "osm_type": "node" }, "geometry": { "type": "Point", "coordinates": [ 24.948911666870117, 60.170074462890625 ] } },
{ "type": "Feature", "properties": { "changeset": 0, "tags": { "cuisine": "burger", "description": "USA tyyppinen diner - kaupungin parhaimmat (suurimmat) burgerit." }, "lon": 24.943567276000977, "id": 1208596667, "timestamp": 1371474051, "version": 5, "lat": 60.169605255126953, "addr:city": "Helsinki", "addr:country": "FI", "addr:housenumber": null, "addr:housename": null, "addr:postcode": "00100", "addr:street": "Ateneuminkuja", "email": null, "name": "Morrison's Grill & Green", "opening_hours": null, "operator": null, "phone": "+358 9 625 466", "url": null, "website": "http:\/\/www.rafla.fi\/morrisons\/fi\/etusivu", "amenity": "restaurant", "internet_access": null, "pub": null, "source": null, "osm_type": "node" }, "geometry": { "type": "Point", "coordinates": [ 24.943567276000977, 60.169605255126953 ] } },
{ "type": "Feature", "properties": { "changeset": 0, "tags": null, "lon": 24.939098358154297, "id": 1369465568, "timestamp": 1488420799, "version": 2, "lat": 60.170314788818359, "addr:city": "Helsinki", "addr:country": "FI", "addr:housenumber": "2", "addr:housename": null, "addr:postcode": "00100", "addr:street": "Asemanaukio", "email": null, "name": "Casa Largo", "opening_hours": null, "operator": null, "phone": "+358 10 766 3501", "url": null, "website": "https:\/\/www.raflaamo.fi\/fi\/helsinki\/casa-largo", "amenity": "restaurant", "internet_access": null, "pub": null, "source": null, "osm_type": "node" }, "geometry": { "type": "Point", "coordinates": [ 24.939098358154297, 60.170314788818359 ] } },
{ "type": "Feature", "properties": { "changeset": 0, "tags": { "cuisine": "burger", "smoking": "no", "wheelchair": "yes", "wheelchair:description": "Ravintola auki arkena: ma–to 08.00–24.00\r\nRavintola auki viikonloppuna: pe–la 08.00–01.30, su 10.00–23.00\r\nPuhelin: 020 770 1801\r\nRavintolat #: 20205" }, "lon": 24.942207336425781, "id": 1369465577, "timestamp": 1516519002, "version": 8, "lat": 60.170917510986328, "addr:city": "Helsinki", "addr:country": "FI", "addr:housenumber": "1", "addr:housename": null, "addr:postcode": "00100", "addr:street": "Rautatieasema, Kaivokatu", "email": null, "name": "Burger King", "opening_hours": "Mo-Th 08:00-00:00; Fr-Sa 08:00-01:30; Su 10:00-23:00", "operator": null, "phone": "+358 20 770 1801", "url": null, "website": "http:\/\/www.burgerking.fi", "amenity": "restaurant", "internet_access": null, "pub": null, "source": null, "osm_type": "node" }, "geometry": { "type": "Point", "coordinates": [ 24.942207336425781, 60.170917510986328 ] } },
{ "type": "Feature", "properties": { "changeset": 0, "tags": { "floor": "2", "cuisine": "chinese", "wheelchair": "limited" }, "lon": 24.944252014160156, "id": 1369465591, "timestamp": 1371474051, "version": 4, "lat": 60.169544219970703, "addr:city": "Helsinki", "addr:country": "FI", "addr:housenumber": null, "addr:housename": null, "addr:postcode": "00100", "addr:street": "Ateneuminkuja", "email": null, "name": "Grand Shanghai", "opening_hours": null, "operator": null, "phone": null, "url": null, "website": null, "amenity": "restaurant", "internet_access": null, "pub": null, "source": null, "osm_type": "node" }, "geometry": { "type": "Point", "coordinates": [ 24.944252014160156, 60.169544219970703 ] } },
{ "type": "Feature", "properties": { "changeset": 0, "tags": null, "lon": 24.938896179199219, "id": 1369465615, "timestamp": 1311284398, "version": 1, "lat": 60.170238494873047, "addr:city": "Helsinki", "addr:country": "FI", "addr:housenumber": null, "addr:housename": null, "addr:postcode": "00100", "addr:street": null, "email": null, "name": "Loiste", "opening_hours": null, "operator": null, "phone": "+358 9 4337 6315", "url": null, "website": "http:\/\/www.ravintolaloiste.fi\/", "amenity": "restaurant", "internet_access": null, "pub": null, "source": null, "osm_type": "node" }, "geometry": { "type": "Point", "coordinates": [ 24.938896179199219, 60.170238494873047 ] } },
{ "type": "Feature", "properties": { "changeset": 0, "tags": null, "lon": 24.943613052368164, "id": 1369465628, "timestamp": 1311284398, "version": 1, "lat": 60.172096252441406, "addr:city": null, "addr:country": null, "addr:housenumber": null, "addr:housename": null, "addr:postcode": null, "addr:street": null, "email": null, "name": "Morkku", "opening_hours": null, "operator": null, "phone": null, "url": null, "website": null, "amenity": "restaurant", "internet_access": null, "pub": null, "source": null, "osm_type": "node" }, "geometry": { "type": "Point", "coordinates": [ 24.943613052368164, 60.172096252441406 ] } },
{ "type": "Feature", "properties": { "changeset": 0, "tags": { "cuisine": "nepalese", "wheelchair": "limited" }, "lon": 24.944562911987305, "id": 1369465630, "timestamp": 1548278645, "version": 3, "lat": 60.172103881835938, "addr:city": "Helsinki", "addr:country": null, "addr:housenumber": "8", "addr:housename": null, "addr:postcode": "00100", "addr:street": "Vilhonkatu", "email": null, "name": "Mount Everest", "opening_hours": null, "operator": null, "phone": null, "url": null, "website": "http:\/\/www.everestyeti.fi\/", "amenity": "restaurant", "internet_access": null, "pub": null, "source": null, "osm_type": "node" }, "geometry": { "type": "Point", "coordinates": [ 24.944562911987305, 60.172103881835938 ] } },
{ "type": "Feature", "properties": { "changeset": 0, "tags": { "brunch": "yes", "is_in": "Hotel Seurahuone", "wheelchair": "limited" }, "lon": 24.939510345458984, "id": 1369465673, "timestamp": 1553963782, "version": 4, "lat": 60.170074462890625, "addr:city": "Helsinki", "addr:country": "FI", "addr:housenumber": "12", "addr:housename": null, "addr:postcode": "00100", "addr:street": "Kaivokatu", "email": null, "name": "Brasserie Le Havre", "opening_hours": null, "operator": null, "phone": null, "url": null, "website": "https:\/\/www.hotelliseurahuone.fi\/brasserie-le-havre", "amenity": "restaurant", "internet_access": null, "pub": null, "source": null, "osm_type": "node" }, "geometry": { "type": "Point", "coordinates": [ 24.939510345458984, 60.170074462890625 ] } },
{ "type": "Feature", "properties": { "changeset": 0, "tags": { "cuisine": "regional", "wheelchair": "yes", "wikidata": "Q18663125" }, "lon": 24.940814971923828, "id": 1369465701, "timestamp": 1541693438, "version": 6, "lat": 60.169261932373047, "addr:city": "Helsinki", "addr:country": "FI", "addr:housenumber": "3", "addr:housename": null, "addr:postcode": "00100", "addr:street": "Mannerheimintie", "email": null, "name": "Zetor", "opening_hours": null, "operator": null, "phone": null, "url": "http:\/\/www.zetor.net\/", "website": "http:\/\/www.zetor.net\/", "amenity": "restaurant", "internet_access": null, "pub": null, "source": null, "osm_type": "node" }, "geometry": { "type": "Point", "coordinates": [ 24.940814971923828, 60.169261932373047 ] } },
{ "type": "Feature", "properties": { "changeset": 0, "tags": { "cuisine": "vietnamese", "outdoor_seating": "yes" }, "lon": 24.936046600341797, "id": 1371747504, "timestamp": 1544165100, "version": 3, "lat": 60.169628143310547, "addr:city": "Helsinki", "addr:country": "FI", "addr:housenumber": null, "addr:housename": null, "addr:postcode": null, "addr:street": null, "email": null, "name": "Asian Wok And Grill Phở Việt", "opening_hours": null, "operator": null, "phone": null, "url": null, "website": null, "amenity": "restaurant", "internet_access": null, "pub": null, "source": null, "osm_type": "node" }, "geometry": { "type": "Point", "coordinates": [ 24.936046600341797, 60.169628143310547 ] } },
{ "type": "Feature", "properties": { "changeset": 0, "tags": { "name:sv": "Kapellet", "wheelchair": "yes" }, "lon": 24.950305938720703, "id": 1376320188, "timestamp": 1471356278, "version": 5, "lat": 60.167388916015625, "addr:city": null, "addr:country": null, "addr:housenumber": "1", "addr:housename": null, "addr:postcode": "00130", "addr:street": "Eteläesplanadi", "email": "kappeli@sok.fi", "name": "Kappeli", "opening_hours": "Mo-Su 10:00-24:00", "operator": null, "phone": "0107663880", "url": null, "website": "http:\/\/www.kappeli.fi\/", "amenity": "restaurant", "internet_access": null, "pub": null, "source": null, "osm_type": "node" }, "geometry": { "type": "Point", "coordinates": [ 24.950305938720703, 60.167388916015625 ] } },
{ "type": "Feature", "properties": { "changeset": 0, "tags": null, "lon": 24.947954177856445, "id": 1376356004, "timestamp": 1554579018, "version": 3, "lat": 60.172966003417969, "addr:city": "Helsinki", "addr:country": "FI", "addr:housenumber": null, "addr:housename": null, "addr:postcode": null, "addr:street": null, "email": null, "name": "Arthur", "opening_hours": null, "operator": null, "phone": null, "url": null, "website": "https:\/\/www.hotelarthur.fi\/", "amenity": "restaurant", "internet_access": null, "pub": null, "source": null, "osm_type": "node" }, "geometry": { "type": "Point", "coordinates": [ 24.947954177856445, 60.172966003417969 ] } },
{ "type": "Feature", "properties": { "changeset": 0, "tags": { "note": "Opens summer 2017", "wheelchair": "limited" }, "lon": 24.945558547973633, "id": 1376356006, "timestamp": 1490537979, "version": 4, "lat": 60.1712646484375, "addr:city": "Helsinki", "addr:country": "FI", "addr:housenumber": null, "addr:housename": null, "addr:postcode": "00100", "addr:street": "Mikonkatu", "email": null, "name": "Colorado", "opening_hours": null, "operator": null, "phone": null, "url": null, "website": null, "amenity": "restaurant", "internet_access": null, "pub": null, "source": null, "osm_type": "node" }, "geometry": { "type": "Point", "coordinates": [ 24.945558547973633, 60.1712646484375 ] } },
{ "type": "Feature", "properties": { "changeset": 0, "tags": null, "lon": 24.948175430297852, "id": 1376356011, "timestamp": 1311809552, "version": 1, "lat": 60.172054290771484, "addr:city": "Helsinki", "addr:country": "FI", "addr:housenumber": null, "addr:housename": null, "addr:postcode": null, "addr:street": null, "email": null, "name": "Huviretki", "opening_hours": null, "operator": null, "phone": null, "url": null, "website": null, "amenity": "restaurant", "internet_access": null, "pub": null, "source": null, "osm_type": "node" }, "geometry": { "type": "Point", "coordinates": [ 24.948175430297852, 60.172054290771484 ] } },
{ "type": "Feature", "properties": { "changeset": 0, "tags": { "brand": "Vapiano", "cuisine": "italian", "diet:vegan": "yes", "diet:vegetarian": "yes", "lunch": "yes", "outdoor_seating": "yes", "wheelchair": "no", "wheelchair:description": "Sisään pääsee, mutta ei paikkaan jossa pääsee tilaamaan ruokaa. You can get in but not to the place where you order you order." }, "lon": 24.945571899414062, "id": 1376356025, "timestamp": 1551112033, "version": 10, "lat": 60.170951843261719, "addr:city": "Helsinki", "addr:country": "FI", "addr:housenumber": null, "addr:housename": null, "addr:postcode": "00100", "addr:street": null, "email": "helsinki1@vapiano.fi", "name": "Vapiano", "opening_hours": "Mo-Th 11:00-23:00; Fr11:00-24:00; Sa 12:00-24:00; Su 12:00-21:00", "operator": null, "phone": null, "url": null, "website": "https:\/\/fi.vapiano.com\/", "amenity": "restaurant", "internet_access": null, "pub": null, "source": null, "osm_type": "node" }, "geometry": { "type": "Point", "coordinates": [ 24.945571899414062, 60.170951843261719 ] } },
{ "type": "Feature", "properties": { "changeset": 0, "tags": null, "lon": 24.936046600341797, "id": 1378007257, "timestamp": 1487263209, "version": 3, "lat": 60.166797637939453, "addr:city": "Helsinki", "addr:country": "FI", "addr:housenumber": "17", "addr:housename": null, "addr:postcode": "00100", "addr:street": "Kalevankatu", "email": null, "name": "Fig", "opening_hours": null, "operator": null, "phone": null, "url": null, "website": "http:\/\/ravintolafig.fi", "amenity": "restaurant", "internet_access": null, "pub": null, "source": null, "osm_type": "node" }, "geometry": { "type": "Point", "coordinates": [ 24.936046600341797, 60.166797637939453 ] } },
{ "type": "Feature", "properties": { "changeset": 0, "tags": { "diet:vegetarian": "yes", "wheelchair": "no" }, "lon": 24.935993194580078, "id": 1378007271, "timestamp": 1551023045, "version": 6, "lat": 60.167339324951172, "addr:city": "Helsinki", "addr:country": "FI", "addr:housenumber": "26", "addr:housename": null, "addr:postcode": "00100", "addr:street": "Annankatu", "email": null, "name": "Long Wall", "opening_hours": "Mo-Fr 11:00-23:00, Sa-Su 12:00-23:00; PH off", "operator": null, "phone": "+3589676131", "url": null, "website": null, "amenity": "restaurant", "internet_access": null, "pub": null, "source": null, "osm_type": "node" }, "geometry": { "type": "Point", "coordinates": [ 24.935993194580078, 60.167339324951172 ] } },
{ "type": "Feature", "properties": { "changeset": 0, "tags": { "cuisine": "chinese", "diet:vegan": "yes", "diet:vegetarian": "yes", "outdoor_seating": "no", "wheelchair": "no" }, "lon": 24.935598373413086, "id": 1378007284, "timestamp": 1552744272, "version": 7, "lat": 60.167984008789062, "addr:city": "Helsinki", "addr:country": "FI", "addr:housenumber": "29", "addr:housename": null, "addr:postcode": "00100", "addr:street": "Annankatu", "email": null, "name": "New Bamboo Center", "opening_hours": "Mo,Tu 10:00-20:00; We,Th 11:00-20:00; Fr 11:00-21:30; PH off", "operator": null, "phone": null, "url": null, "website": "https:\/\/www.newbamboocenter.com\/", "amenity": "restaurant", "internet_access": null, "pub": null, "source": null, "osm_type": "node" }, "geometry": { "type": "Point", "coordinates": [ 24.935598373413086, 60.167984008789062 ] } },
{ "type": "Feature", "properties": { "changeset": 0, "tags": { "diet:vegan": "yes", "diet:vegetarian": "yes", "wheelchair": "no" }, "lon": 24.935800552368164, "id": 1378007286, "timestamp": 1529592431, "version": 7, "lat": 60.167854309082031, "addr:city": "Helsinki", "addr:country": "FI", "addr:housenumber": "28", "addr:housename": null, "addr:postcode": "00100", "addr:street": "Annankatu", "email": null, "name": "Pikku Nepal", "opening_hours": "Mo 11:00-22:00; Tu-Fr 11:00-23:00; Sa 13:00-23:00; Su 13:00-22:00; PH off", "operator": null, "phone": "+35896931778", "url": null, "website": "http:\/\/www.pikkunepal.fi", "amenity": "restaurant", "internet_access": null, "pub": null, "source": null, "osm_type": "node" }, "geometry": { "type": "Point", "coordinates": [ 24.935800552368164, 60.167854309082031 ] } },
{ "type": "Feature", "properties": { "changeset": 0, "tags": { "name:sv": "Simonsgatan", "wheelchair": "yes" }, "lon": 24.935657501220703, "id": 1378007300, "timestamp": 1512303946, "version": 2, "lat": 60.169048309326172, "addr:city": "Helsinki", "addr:country": "FI", "addr:housenumber": null, "addr:housename": null, "addr:postcode": null, "addr:street": null, "email": null, "name": "Simonkatu", "opening_hours": null, "operator": null, "phone": null, "url": null, "website": null, "amenity": "restaurant", "internet_access": null, "pub": null, "source": null, "osm_type": "node" }, "geometry": { "type": "Point", "coordinates": [ 24.935657501220703, 60.169048309326172 ] } },
{ "type": "Feature", "properties": { "changeset": 0, "tags": { "cuisine": "spanish" }, "lon": 24.936813354492188, "id": 1379037953, "timestamp": 1365764814, "version": 4, "lat": 60.169124603271484, "addr:city": "Helsinki", "addr:country": "FI", "addr:housenumber": "8", "addr:housename": null, "addr:postcode": "00100", "addr:street": "Simonkatu", "email": null, "name": "Como Vinoteca", "opening_hours": null, "operator": null, "phone": null, "url": null, "website": null, "amenity": "restaurant", "internet_access": null, "pub": null, "source": null, "osm_type": "node" }, "geometry": { "type": "Point", "coordinates": [ 24.936813354492188, 60.169124603271484 ] } },
{ "type": "Feature", "properties": { "changeset": 0, "tags": { "diet:vegan": "yes", "diet:vegetarian": "yes", "wheelchair": "limited" }, "lon": 24.940570831298828, "id": 1379054403, "timestamp": 1550861580, "version": 8, "lat": 60.168060302734375, "addr:city": "Helsinki", "addr:country": "FI", "addr:housenumber": "12", "addr:housename": null, "addr:postcode": "00100", "addr:street": "Mannerheimintie", "email": null, "name": "O'Learys Helsinki Bakers", "opening_hours": "Mo-Th 11:00-24:00; Fr-Sa 11:00-04:00; Su 12:00-24:00", "operator": null, "phone": null, "url": null, "website": null, "amenity": "restaurant", "internet_access": null, "pub": null, "source": null, "osm_type": "node" }, "geometry": { "type": "Point", "coordinates": [ 24.940570831298828, 60.168060302734375 ] } },
{ "type": "Feature", "properties": { "changeset": 0, "tags": { "wheelchair": "no" }, "lon": 24.944206237792969, "id": 1380411385, "timestamp": 1494605044, "version": 5, "lat": 60.165306091308594, "addr:city": "Helsinki", "addr:country": "FI", "addr:housenumber": null, "addr:housename": null, "addr:postcode": null, "addr:street": "Erottajankatu", "email": null, "name": "Skiffer", "opening_hours": "Mo-Th 11:00-21:30, Fr 11:00-22:30, Sa 13:00-22:30, Su 13:00-20:00", "operator": null, "phone": null, "url": null, "website": null, "amenity": "restaurant", "internet_access": null, "pub": null, "source": null, "osm_type": "node" }, "geometry": { "type": "Point", "coordinates": [ 24.944206237792969, 60.165306091308594 ] } },
{ "type": "Feature", "properties": { "changeset": 0, "tags": { "alt_name": "Ravintola Penelope", "lunch": "yes", "opening_hours:lunch": "Mo-Fr 11:00-14:00", "toilets:wheelchair": "yes", "wheelchair": "yes", "wheelchair:description": "Invavessa löytyy kokoushuoneen takaa! \/ The wheelchair accessible restroom is behind the meeting room! Ask help from waiter." }, "lon": 24.945648193359375, "id": 1380974068, "timestamp": 1548274509, "version": 14, "lat": 60.169902801513672, "addr:city": "Helsinki", "addr:country": "FI", "addr:housenumber": "9", "addr:housename": null, "addr:postcode": "00014", "addr:street": "Mikonkatu", "email": null, "name": "Ravintola Penélope", "opening_hours": null, "operator": null, "phone": null, "url": null, "website": "https:\/\/ravintolapenelope.fi\/", "amenity": "restaurant", "internet_access": null, "pub": null, "source": null, "osm_type": "node" }, "geometry": { "type": "Point", "coordinates": [ 24.945648193359375, 60.169902801513672 ] } },
{ "type": "Feature", "properties": { "changeset": 0, "tags": { "wheelchair": "yes" }, "lon": 24.947643280029297, "id": 1380974070, "timestamp": 1471360453, "version": 3, "lat": 60.169361114501953, "addr:city": "Helsinki", "addr:country": "FI", "addr:housenumber": "5", "addr:housename": null, "addr:postcode": null, "addr:street": "Kluuvikatu", "email": null, "name": "Belge", "opening_hours": null, "operator": null, "phone": "0107663590", "url": null, "website": "http:\/\/www.belge.fi\/", "amenity": "restaurant", "internet_access": null, "pub": null, "source": null, "osm_type": "node" }, "geometry": { "type": "Point", "coordinates": [ 24.947643280029297, 60.169361114501953 ] } },
{ "type": "Feature", "properties": { "changeset": 0, "tags": { "cuisine": "sushi", "floor": "2", "wheelchair": "yes" }, "lon": 24.944747924804688, "id": 1380974071, "timestamp": 1553963121, "version": 6, "lat": 60.169620513916016, "addr:city": "Helsinki", "addr:country": "FI", "addr:housenumber": "8, 2. krs.\/2nd floor", "addr:housename": null, "addr:postcode": "00100", "addr:street": "Mikonkatu", "email": null, "name": "Ichiban Sushi", "opening_hours": null, "operator": null, "phone": null, "url": null, "website": "https:\/\/www.ichiban.fi\/", "amenity": "restaurant", "internet_access": null, "pub": null, "source": null, "osm_type": "node" }, "geometry": { "type": "Point", "coordinates": [ 24.944747924804688, 60.169620513916016 ] } },
{ "type": "Feature", "properties": { "changeset": 0, "tags": { "cuisine": "regional" }, "lon": 24.939704895019531, "id": 1380976598, "timestamp": 1481087865, "version": 6, "lat": 60.168045043945312, "addr:city": "Helsinki", "addr:country": "FI", "addr:housenumber": "3", "addr:housename": null, "addr:postcode": "00100", "addr:street": "Kalevankatu", "email": null, "name": "Ravintola Kosmos", "opening_hours": "Mo-Fr 11:30-01:00; Sa 16:00-01:00", "operator": null, "phone": null, "url": null, "website": "http:\/\/www.kosmos.fi\/", "amenity": "restaurant", "internet_access": null, "pub": null, "source": null, "osm_type": "node" }, "geometry": { "type": "Point", "coordinates": [ 24.939704895019531, 60.168045043945312 ] } },
{ "type": "Feature", "properties": { "changeset": 0, "tags": { "cuisine": "sushi", "highchair": "yes", "high_chair": "yes", "lunch": "yes", "wheelchair": "limited" }, "lon": 24.949380874633789, "id": 1380991231, "timestamp": 1491166090, "version": 6, "lat": 60.178443908691406, "addr:city": "Helsinki", "addr:country": "FI", "addr:housenumber": "12", "addr:housename": null, "addr:postcode": "00530", "addr:street": "Siltasaarenkatu", "email": null, "name": "Sushi Bar Rice Garden", "opening_hours": null, "operator": null, "phone": null, "url": null, "website": "https:\/\/facebook.com\/", "amenity": "restaurant", "internet_access": null, "pub": null, "source": null, "osm_type": "node" }, "geometry": { "type": "Point", "coordinates": [ 24.949380874633789, 60.178443908691406 ] } },
{ "type": "Feature", "properties": { "changeset": 0, "tags": { "wheelchair": "limited" }, "lon": 24.936952590942383, "id": 1381017820, "timestamp": 1492004978, "version": 4, "lat": 60.170372009277344, "addr:city": "Helsinki", "addr:country": "FI", "addr:housenumber": null, "addr:housename": null, "addr:postcode": null, "addr:street": null, "email": null, "name": "Lasipalatsi", "opening_hours": null, "operator": null, "phone": null, "url": "http:\/\/ravintola.lasipalatsi.fi\/", "website": null, "amenity": "restaurant", "internet_access": null, "pub": null, "source": null, "osm_type": "node" }, "geometry": { "type": "Point", "coordinates": [ 24.936952590942383, 60.170372009277344 ] } },
{ "type": "Feature", "properties": { "changeset": 0, "tags": null, "lon": 24.952217102050781, "id": 1405640120, "timestamp": 1487424389, "version": 3, "lat": 60.166431427001953, "addr:city": null, "addr:country": null, "addr:housenumber": null, "addr:housename": null, "addr:postcode": null, "addr:street": null, "email": null, "name": "Bystro", "opening_hours": null, "operator": null, "phone": null, "url": null, "website": "http:\/\/www.bystro.fi", "amenity": "restaurant", "internet_access": null, "pub": null, "source": null, "osm_type": "node" }, "geometry": { "type": "Point", "coordinates": [ 24.952217102050781, 60.166431427001953 ] } },
{ "type": "Feature", "properties": { "changeset": 0, "tags": { "address": "Kaisaniemenranta 2", "wheelchair": "no" }, "lon": 24.946540832519531, "id": 1514631250, "timestamp": 1512303816, "version": 2, "lat": 60.175895690917969, "addr:city": null, "addr:country": null, "addr:housenumber": null, "addr:housename": null, "addr:postcode": null, "addr:street": null, "email": null, "name": "Viinikahvila Viola", "opening_hours": null, "operator": null, "phone": "09 19124468", "url": "www.juhlaravintolat.fi", "website": null, "amenity": "restaurant", "internet_access": null, "pub": null, "source": null, "osm_type": "node" }, "geometry": { "type": "Point", "coordinates": [ 24.946540832519531, 60.175895690917969 ] } },
{ "type": "Feature", "properties": { "changeset": 0, "tags": { "lunch": "yes" }, "lon": 24.951534271240234, "id": 1533487184, "timestamp": 1553963517, "version": 4, "lat": 60.177936553955078, "addr:city": "Helsinki", "addr:country": "FI", "addr:housenumber": "6", "addr:housename": null, "addr:postcode": "00530", "addr:street": "John Stenbergin ranta", "email": null, "name": "Ravintola La Mer", "opening_hours": null, "operator": null, "phone": null, "url": null, "website": "https:\/\/www.sodexo.fi\/", "amenity": "restaurant", "internet_access": null, "pub": null, "source": null, "osm_type": "node" }, "geometry": { "type": "Point", "coordinates": [ 24.951534271240234, 60.177936553955078 ] } },
{ "type": "Feature", "properties": { "changeset": 0, "tags": { "cuisine": "asian" }, "lon": 24.945991516113281, "id": 1589624928, "timestamp": 1490539363, "version": 3, "lat": 60.171047210693359, "addr:city": "Helsinki", "addr:country": "FI", "addr:housenumber": null, "addr:housename": null, "addr:postcode": "00100", "addr:street": "Kaisaniemenkatu", "email": null, "name": "Basilika", "opening_hours": null, "operator": null, "phone": null, "url": null, "website": null, "amenity": "restaurant", "internet_access": null, "pub": null, "source": null, "osm_type": "node" }, "geometry": { "type": "Point", "coordinates": [ 24.945991516113281, 60.171047210693359 ] } },
{ "type": "Feature", "properties": { "changeset": 0, "tags": { "lunch": "yes", "cuisine": "italian", "wheelchair": "yes" }, "lon": 24.94322395324707, "id": 1589624953, "timestamp": 1479952668, "version": 5, "lat": 60.168426513671875, "addr:city": "Helsinki", "addr:country": null, "addr:housenumber": "3", "addr:housename": null, "addr:postcode": "00100", "addr:street": "Keskuskatu", "email": null, "name": "La Famiglia", "opening_hours": null, "operator": null, "phone": null, "url": null, "website": "https:\/\/www.raflaamo.fi\/fi\/helsinki\/la-famiglia-helsinki", "amenity": "restaurant", "internet_access": null, "pub": null, "source": null, "osm_type": "node" }, "geometry": { "type": "Point", "coordinates": [ 24.94322395324707, 60.168426513671875 ] } },
{ "type": "Feature", "properties": { "changeset": 0, "tags": { "brunch": "yes", "cuisine": "regional", "floor": "2", "opening_hours:brunch": "Sa-Su 10:00-15:00", "wheelchair": "yes" }, "lon": 24.951658248901367, "id": 1590334306, "timestamp": 1494709877, "version": 4, "lat": 60.168910980224609, "addr:city": null, "addr:country": null, "addr:housenumber": null, "addr:housename": null, "addr:postcode": null, "addr:street": null, "email": null, "name": "Sunn", "opening_hours": "Mo-Tu 10:30-23:00;We-Fr 10:30-24:00; Sa 10:00-24:00; Su 10:00-22:00", "operator": null, "phone": "+358 10 2312 800", "url": null, "website": "http:\/\/www.ravintolasunn.fi\/", "amenity": "restaurant", "internet_access": null, "pub": null, "source": null, "osm_type": "node" }, "geometry": { "type": "Point", "coordinates": [ 24.951658248901367, 60.168910980224609 ] } },
{ "type": "Feature", "properties": { "changeset": 0, "tags": { "cuisine": "asian", "wheelchair": "yes" }, "lon": 24.941993713378906, "id": 1604685371, "timestamp": 1553962815, "version": 6, "lat": 60.165897369384766, "addr:city": "Helsinki", "addr:country": "FI", "addr:housenumber": "6", "addr:housename": null, "addr:postcode": "00120", "addr:street": "Bulevardi", "email": null, "name": "Gaijin", "opening_hours": "Mo 17:00-00:30;Tu-Fr 11:30-00:30;Sa 17:00-00:30;Su 17:00-23:00", "operator": null, "phone": null, "url": null, "website": "https:\/\/www.gaijin.fi\/", "amenity": "restaurant", "internet_access": null, "pub": null, "source": null, "osm_type": "node" }, "geometry": { "type": "Point", "coordinates": [ 24.941993713378906, 60.165897369384766 ] } },
{ "type": "Feature", "properties": { "changeset": 0, "tags": { "cuisine": "spanish", "wheelchair": "no" }, "lon": 24.945005416870117, "id": 1749881063, "timestamp": 1493499266, "version": 3, "lat": 60.168201446533203, "addr:city": "Helsinki", "addr:country": null, "addr:housenumber": "2", "addr:housename": null, "addr:postcode": "00100", "addr:street": "Mikonkatu", "email": null, "name": "Tapas BarCelona", "opening_hours": null, "operator": null, "phone": null, "url": null, "website": "https:\/\/raflaamo.fi\/fi\/helsinki\/tapas-barcelona", "amenity": "restaurant", "internet_access": null, "pub": null, "source": null, "osm_type": "node" }, "geometry": { "type": "Point", "coordinates": [ 24.945005416870117, 60.168201446533203 ] } },
{ "type": "Feature", "properties": { "changeset": 0, "tags": { "cuisine": "mexican", "wheelchair": "yes", "wheelchair:description": "There are ramps to the restaurant when coming from Aleksanterinkatu.\nThere are 2 wheelchair accessible toilets for small(ish) wheelchairs in different sides of the restaurant: there are 3 steps between these 2 halves." }, "lon": 24.944280624389648, "id": 1985596033, "timestamp": 1497189485, "version": 9, "lat": 60.169178009033203, "addr:city": "Helsinki", "addr:country": null, "addr:housenumber": "15", "addr:housename": null, "addr:postcode": "00100", "addr:street": "Aleksanterinkatu", "email": null, "name": "Santa Fe", "opening_hours": null, "operator": null, "phone": null, "url": null, "website": "http:\/\/santafe.fi\/", "amenity": "restaurant", "internet_access": null, "pub": null, "source": null, "osm_type": "node" }, "geometry": { "type": "Point", "coordinates": [ 24.944280624389648, 60.169178009033203 ] } },
{ "type": "Feature", "properties": { "changeset": 0, "tags": { "wheelchair": "limited" }, "lon": 24.943798065185547, "id": 1985596203, "timestamp": 1487941874, "version": 6, "lat": 60.168735504150391, "addr:city": "Helsinki", "addr:country": "FI", "addr:housenumber": "50 B", "addr:housename": null, "addr:postcode": "00100", "addr:street": "Aleksanterinkatu", "email": null, "name": "La Torrefazione", "opening_hours": null, "operator": null, "phone": null, "url": null, "website": "http:\/\/www.latorre.fi\/", "amenity": "restaurant", "internet_access": null, "pub": null, "source": null, "osm_type": "node" }, "geometry": { "type": "Point", "coordinates": [ 24.943798065185547, 60.168735504150391 ] } },
{ "type": "Feature", "properties": { "changeset": 0, "tags": { "wheelchair": "limited" }, "lon": 24.944955825805664, "id": 1985596326, "timestamp": 1493499058, "version": 3, "lat": 60.168712615966797, "addr:city": "Helsinki", "addr:country": null, "addr:housenumber": "46", "addr:housename": null, "addr:postcode": "00100", "addr:street": "Aleksanterinkatu", "email": null, "name": "Raffaello", "opening_hours": null, "operator": null, "phone": null, "url": null, "website": "https:\/\/raflaamo.fi\/fi\/helsinki\/raffaello", "amenity": "restaurant", "internet_access": null, "pub": null, "source": null, "osm_type": "node" }, "geometry": { "type": "Point", "coordinates": [ 24.944955825805664, 60.168712615966797 ] } },
{ "type": "Feature", "properties": { "changeset": 0, "tags": { "cuisine": "sushi", "wheelchair": "no" }, "lon": 24.945722579956055, "id": 1985596846, "timestamp": 1489163407, "version": 4, "lat": 60.169261932373047, "addr:city": "Helsinki", "addr:country": null, "addr:housenumber": null, "addr:housename": null, "addr:postcode": "00100", "addr:street": null, "email": null, "name": "Itamae Sushi", "opening_hours": null, "operator": null, "phone": null, "url": null, "website": "http:\/\/www.cafepicnic.fi\/", "amenity": "restaurant", "internet_access": null, "pub": null, "source": null, "osm_type": "node" }, "geometry": { "type": "Point", "coordinates": [ 24.945722579956055, 60.169261932373047 ] } },
{ "type": "Feature", "properties": { "changeset": 0, "tags": { "cuisine": "sushi", "wheelchair": "no" }, "lon": 24.940500259399414, "id": 2018446356, "timestamp": 1553963815, "version": 8, "lat": 60.164527893066406, "addr:city": "Helsinki", "addr:country": "FI", "addr:housenumber": "15", "addr:housename": null, "addr:postcode": "00120", "addr:street": "Uudenmaankatu", "email": null, "name": "Sushibar+wine", "opening_hours": "Mo-Th 11:00-22:00;Fr 11:00-23:00;Sa 14:00-23:00", "operator": null, "phone": "+358106668456", "url": null, "website": "https:\/\/www.sushibar.fi\/", "amenity": "restaurant", "internet_access": null, "pub": null, "source": null, "osm_type": "node" }, "geometry": { "type": "Point", "coordinates": [ 24.940500259399414, 60.164527893066406 ] } },
{ "type": "Feature", "properties": { "changeset": 0, "tags": { "brunch": "yes", "highchair": "yes", "wheelchair": "no" }, "lon": 24.937177658081055, "id": 2088461184, "timestamp": 1490113314, "version": 10, "lat": 60.167156219482422, "addr:city": "Helsinki", "addr:country": "FI", "addr:housenumber": "13", "addr:housename": null, "addr:postcode": "00100", "addr:street": "Kalevankatu", "email": null, "name": "Passio", "opening_hours": "Mo-Th 17:00-24:00; Fr-Su 16:00-24:00", "operator": null, "phone": null, "url": null, "website": "http:\/\/passiodining.fi", "amenity": "restaurant", "internet_access": null, "pub": null, "source": null, "osm_type": "node" }, "geometry": { "type": "Point", "coordinates": [ 24.937177658081055, 60.167156219482422 ] } },
{ "type": "Feature", "properties": { "changeset": 0, "tags": { "cuisine": "sushi" }, "lon": 24.949085235595703, "id": 2225393048, "timestamp": 1482064602, "version": 3, "lat": 60.165725708007812, "addr:city": null, "addr:country": null, "addr:housenumber": null, "addr:housename": null, "addr:postcode": null, "addr:street": null, "email": null, "name": "Day & Nite Sushi Bar", "opening_hours": null, "operator": null, "phone": null, "url": null, "website": null, "amenity": "restaurant", "internet_access": null, "pub": null, "source": null, "osm_type": "node" }, "geometry": { "type": "Point", "coordinates": [ 24.949085235595703, 60.165725708007812 ] } },
{ "type": "Feature", "properties": { "changeset": 0, "tags": { "cuisine": "pizza", "lunch": "yes", "wheelchair": "no" }, "lon": 24.942047119140625, "id": 2249127684, "timestamp": 1527939355, "version": 7, "lat": 60.165027618408203, "addr:city": "Helsinki", "addr:country": "FI", "addr:housenumber": "9-11", "addr:housename": null, "addr:postcode": "00120", "addr:street": "Uudenmaankatu", "email": "pnlhelsinki@gmail.com", "name": "Piece'n'love", "opening_hours": "Mo-Th 11:00-00:00; Fr-Sa 11:00-01:00; Su 11:00-21:00", "operator": null, "phone": "050 468 5933", "url": null, "website": "https:\/\/www.piecenlovepizza.com", "amenity": "restaurant", "internet_access": null, "pub": null, "source": null, "osm_type": "node" }, "geometry": { "type": "Point", "coordinates": [ 24.942047119140625, 60.165027618408203 ] } },
{ "type": "Feature", "properties": { "changeset": 0, "tags": { "cuisine": "sushi", "wheelchair": "limited" }, "lon": 24.936798095703125, "id": 2264356399, "timestamp": 1492004979, "version": 5, "lat": 60.16973876953125, "addr:city": null, "addr:country": null, "addr:housenumber": null, "addr:housename": null, "addr:postcode": null, "addr:street": null, "email": null, "name": "Haiku", "opening_hours": null, "operator": null, "phone": null, "url": "https:\/\/haikusushi.fi\/", "website": null, "amenity": "restaurant", "internet_access": null, "pub": null, "source": null, "osm_type": "node" }, "geometry": { "type": "Point", "coordinates": [ 24.936798095703125, 60.16973876953125 ] } },
{ "type": "Feature", "properties": { "changeset": 0, "tags": { "cuisine": "spanish", "wheelchair": "no" }, "lon": 24.937067031860352, "id": 2264356403, "timestamp": 1491202402, "version": 5, "lat": 60.167716979980469, "addr:city": "Helsinki", "addr:country": "FI", "addr:housenumber": "4", "addr:housename": null, "addr:postcode": "00100", "addr:street": "Eerikinkatu", "email": null, "name": "Parilla Espanola", "opening_hours": null, "operator": null, "phone": null, "url": null, "website": "http:\/\/parillaespanola.fi\/", "amenity": "restaurant", "internet_access": null, "pub": null, "source": null, "osm_type": "node" }, "geometry": { "type": "Point", "coordinates": [ 24.937067031860352, 60.167716979980469 ] } },
{ "type": "Feature", "properties": { "changeset": 0, "tags": { "cuisine": "asian" }, "lon": 24.937698364257812, "id": 2267547184, "timestamp": 1553963370, "version": 6, "lat": 60.167751312255859, "addr:city": "Helsinki", "addr:country": "FI", "addr:housenumber": "30", "addr:housename": null, "addr:postcode": "00100", "addr:street": "Yrjönkatu", "email": null, "name": "Ravintola Rulla @Nudge", "opening_hours": "Mo-Fr 11:00-19:00; Sa 11:00-18:00; PH off", "operator": null, "phone": null, "url": null, "website": "https:\/\/rulla.fi\/", "amenity": "restaurant", "internet_access": null, "pub": null, "source": null, "osm_type": "node" }, "geometry": { "type": "Point", "coordinates": [ 24.937698364257812, 60.167751312255859 ] } },
{ "type": "Feature", "properties": { "changeset": 0, "tags": { "cuisine": "japanese", "wheelchair": "limited" }, "lon": 24.941383361816406, "id": 2267584419, "timestamp": 1490203774, "version": 6, "lat": 60.167209625244141, "addr:city": "Helsinki", "addr:country": "FI", "addr:housenumber": "2", "addr:housename": null, "addr:postcode": "00100", "addr:street": "Lönnrotinkatu", "email": null, "name": "Kin Sushi Helsinki", "opening_hours": "Mo-Fr 11:00-15:00,17:00-22:00;Sa 12:00-22:00;Su 12:00-18:00", "operator": null, "phone": null, "url": null, "website": null, "amenity": "restaurant", "internet_access": null, "pub": null, "source": null, "osm_type": "node" }, "geometry": { "type": "Point", "coordinates": [ 24.941383361816406, 60.167209625244141 ] } },
{ "type": "Feature", "properties": { "changeset": 0, "tags": { "wheelchair": "no" }, "lon": 24.93897819519043, "id": 2267584426, "timestamp": 1487426391, "version": 5, "lat": 60.168071746826172, "addr:city": "Helsinki", "addr:country": "FI", "addr:housenumber": "21a", "addr:housename": null, "addr:postcode": "00100", "addr:street": "Yrjönkatu", "email": null, "name": "KarlJohan", "opening_hours": null, "operator": null, "phone": null, "url": null, "website": "http:\/\/www.ravintolakarljohan.fi\/", "amenity": "restaurant", "internet_access": null, "pub": null, "source": null, "osm_type": "node" }, "geometry": { "type": "Point", "coordinates": [ 24.93897819519043, 60.168071746826172 ] } },
{ "type": "Feature", "properties": { "changeset": 0, "tags": { "wheelchair": "limited" }, "lon": 24.940799713134766, "id": 2267584430, "timestamp": 1505577061, "version": 5, "lat": 60.167934417724609, "addr:city": "Helsinki", "addr:country": "FI", "addr:housenumber": "12", "addr:housename": null, "addr:postcode": "00100", "addr:street": "Mannerheimintie", "email": null, "name": "Iguana", "opening_hours": "Mo-Th 11:00-01:00;Fr-Sa 11:00-03:00;Su 11:00-01:00", "operator": null, "phone": null, "url": null, "website": "http:\/\/iguana.fi\/mansku.html", "amenity": "restaurant", "internet_access": null, "pub": null, "source": null, "osm_type": "node" }, "geometry": { "type": "Point", "coordinates": [ 24.940799713134766, 60.167934417724609 ] } },
{ "type": "Feature", "properties": { "changeset": 0, "tags": { "cuisine": "chinese;asian", "lunch": "yes", "name:en": "Chinese restaurant", "opening_hours:lunch": "Mo-Fr 11:00-15:00" }, "lon": 24.937799453735352, "id": 2288147668, "timestamp": 1496930987, "version": 3, "lat": 60.17559814453125, "addr:city": "Helsinki", "addr:country": null, "addr:housenumber": "3", "addr:housename": null, "addr:postcode": null, "addr:street": "Alvar Aallon katu", "email": null, "name": "Satkar", "opening_hours": null, "operator": null, "phone": null, "url": null, "website": null, "amenity": "restaurant", "internet_access": null, "pub": null, "source": null, "osm_type": "node" }, "geometry": { "type": "Point", "coordinates": [ 24.937799453735352, 60.17559814453125 ] } },
{ "type": "Feature", "properties": { "changeset": 0, "tags": { "cuisine": "pizza", "diet:vegetarian": "yes" }, "lon": 24.938837051391602, "id": 2322707913, "timestamp": 1551023250, "version": 5, "lat": 60.167484283447266, "addr:city": "Helsinki", "addr:country": "FI", "addr:housenumber": "6", "addr:housename": null, "addr:postcode": "00100", "addr:street": "Kalevankatu", "email": null, "name": "Putte's Bar & Pizza", "opening_hours": "Mo-Th 11:00-24:00, Fr 11:00-03:00, Sa 11:00-02:00, Su 12:00-24:00", "operator": null, "phone": null, "url": null, "website": "http:\/\/www.puttes.fi\/", "amenity": "restaurant", "internet_access": null, "pub": null, "source": null, "osm_type": "node" }, "geometry": { "type": "Point", "coordinates": [ 24.938837051391602, 60.167484283447266 ] } },
{ "type": "Feature", "properties": { "changeset": 0, "tags": { "cuisine": "german" }, "lon": 24.939184188842773, "id": 2333014364, "timestamp": 1553420582, "version": 3, "lat": 60.173698425292969, "addr:city": null, "addr:country": null, "addr:housenumber": "3", "addr:housename": null, "addr:postcode": null, "addr:street": "Töölönlahdenkatu", "email": null, "name": "Ravintola Hausman", "opening_hours": null, "operator": null, "phone": null, "url": null, "website": "http:\/\/ravintolahausman.fi\/", "amenity": "restaurant", "internet_access": null, "pub": null, "source": null, "osm_type": "node" }, "geometry": { "type": "Point", "coordinates": [ 24.939184188842773, 60.173698425292969 ] } },
{ "type": "Feature", "properties": { "changeset": 0, "tags": { "diet:vegan": "yes", "diet:vegetarian": "yes" }, "lon": 24.945775985717773, "id": 2349334832, "timestamp": 1553963559, "version": 4, "lat": 60.169013977050781, "addr:city": "Helsinki", "addr:country": "FI", "addr:housenumber": "13 A, 5. krs.\/Floor 5", "addr:housename": null, "addr:postcode": "00100", "addr:street": "Aleksanterinkatu", "email": null, "name": "Factory Aleksi", "opening_hours": "Mo-Fr 09:00-20:00; Sa 09:00-18:00", "operator": null, "phone": "+358 50 400 0292", "url": null, "website": "https:\/\/www.ravintolafactory.com\/aleksi\/", "amenity": "restaurant", "internet_access": null, "pub": null, "source": null, "osm_type": "node" }, "geometry": { "type": "Point", "coordinates": [ 24.945775985717773, 60.169013977050781 ] } },
{ "type": "Feature", "properties": { "changeset": 0, "tags": { "microbrewery": "yes", "short_name": "Bryggeri", "summer_terrace": "yes" }, "lon": 24.95201301574707, "id": 2371493857, "timestamp": 1507760199, "version": 3, "lat": 60.168296813964844, "addr:city": "Helsinki", "addr:country": "FI", "addr:housenumber": "2", "addr:housename": null, "addr:postcode": "00170", "addr:street": "Sofiankatu", "email": null, "name": "Bryggeri Helsinki", "opening_hours": null, "operator": null, "phone": null, "url": null, "website": "http:\/\/bryggeri.fi\/", "amenity": "restaurant", "internet_access": null, "pub": "yes", "source": null, "osm_type": "node" }, "geometry": { "type": "Point", "coordinates": [ 24.95201301574707, 60.168296813964844 ] } },
{ "type": "Feature", "properties": { "changeset": 0, "tags": { "cuisine": "italian", "wheelchair": "yes" }, "lon": 24.949115753173828, "id": 2403504451, "timestamp": 1553962825, "version": 4, "lat": 60.168846130371094, "addr:city": null, "addr:country": null, "addr:housenumber": null, "addr:housename": null, "addr:postcode": null, "addr:street": null, "email": null, "name": "Il Siciliano", "opening_hours": null, "operator": null, "phone": null, "url": null, "website": "https:\/\/ilsiciliano.fi\/", "amenity": "restaurant", "internet_access": null, "pub": null, "source": null, "osm_type": "node" }, "geometry": { "type": "Point", "coordinates": [ 24.949115753173828, 60.168846130371094 ] } },
{ "type": "Feature", "properties": { "changeset": 0, "tags": { "cuisine": "asian", "wheelchair": "no" }, "lon": 24.943351745605469, "id": 2403899236, "timestamp": 1489173301, "version": 7, "lat": 60.166046142578125, "addr:city": "Helsinki", "addr:country": "FI", "addr:housenumber": null, "addr:housename": null, "addr:postcode": null, "addr:street": null, "email": null, "name": "Pastor", "opening_hours": "Tu-Th 17:00-23:00;Fr 17:00-03:00;Sa 16:00-03:00", "operator": null, "phone": null, "url": null, "website": "http:\/\/www.pastorrestaurant.fi", "amenity": "restaurant", "internet_access": null, "pub": null, "source": null, "osm_type": "node" }, "geometry": { "type": "Point", "coordinates": [ 24.943351745605469, 60.166046142578125 ] } },
{ "type": "Feature", "properties": { "changeset": 0, "tags": { "cuisine": "pizza" }, "lon": 24.936172485351562, "id": 2623487082, "timestamp": 1553963429, "version": 4, "lat": 60.165687561035156, "addr:city": "Helsinki", "addr:country": null, "addr:housenumber": "13", "addr:housename": null, "addr:postcode": "00120", "addr:street": "Lönnrotinkatu", "email": null, "name": "Kotipizza", "opening_hours": "Mo-Th 11:00-22:00; Fr,Sa 11:00-05:00, Su 11:00-22:00", "operator": null, "phone": "+358 207 716 377", "url": null, "website": "https:\/\/www.kotipizza.fi\/index\/20?kotipizzaID=FI00020377", "amenity": "restaurant", "internet_access": null, "pub": null, "source": null, "osm_type": "node" }, "geometry": { "type": "Point", "coordinates": [ 24.936172485351562, 60.165687561035156 ] } },
{ "type": "Feature", "properties": { "changeset": 0, "tags": { "floor": "-1", "cuisine": "regional" }, "lon": 24.946510314941406, "id": 2626760661, "timestamp": 1390034241, "version": 1, "lat": 60.171482086181641, "addr:city": "Helsinki", "addr:country": "FI", "addr:housenumber": null, "addr:housename": null, "addr:postcode": "00100", "addr:street": null, "email": null, "name": "Hiisi", "opening_hours": null, "operator": null, "phone": null, "url": null, "website": "http:\/\/www.ravintolahiisi.fi\/", "amenity": "restaurant", "internet_access": null, "pub": null, "source": null, "osm_type": "node" }, "geometry": { "type": "Point", "coordinates": [ 24.946510314941406, 60.171482086181641 ] } },
{ "type": "Feature", "properties": { "changeset": 0, "tags": { "cuisine": "vietnamese", "diet:vegan": "yes", "diet:vegetarian": "only" }, "lon": 24.950773239135742, "id": 2757819180, "timestamp": 1488815193, "version": 4, "lat": 60.177730560302734, "addr:city": "Helsinki", "addr:country": null, "addr:housenumber": "3-5", "addr:housename": null, "addr:postcode": "00530", "addr:street": "Siltasaarenkatu", "email": null, "name": "Sen Chay", "opening_hours": "Mo-Fr 09:00-20:00, Sa 12:00-20:00", "operator": null, "phone": null, "url": null, "website": "https:\/\/www.facebook.com\/", "amenity": "restaurant", "internet_access": null, "pub": null, "source": null, "osm_type": "node" }, "geometry": { "type": "Point", "coordinates": [ 24.950773239135742, 60.177730560302734 ] } },
{ "type": "Feature", "properties": { "changeset": 0, "tags": { "cuisine": "scandinavian" }, "lon": 24.939081192016602, "id": 2917442969, "timestamp": 1553420582, "version": 2, "lat": 60.174327850341797, "addr:city": "Helsinki", "addr:country": "FI", "addr:housenumber": "3", "addr:housename": null, "addr:postcode": null, "addr:street": "Töölönlahdenkatu", "email": null, "name": "Ravintola Lumi", "opening_hours": null, "operator": null, "phone": null, "url": null, "website": "https:\/\/www.ravintolalumi.fi\/", "amenity": "restaurant", "internet_access": null, "pub": null, "source": null, "osm_type": "node" }, "geometry": { "type": "Point", "coordinates": [ 24.939081192016602, 60.174327850341797 ] } },
{ "type": "Feature", "properties": { "changeset": 0, "tags": { "access:dog": "yes", "cuisine": "australian", "wheelchair": "limited" }, "lon": 24.939117431640625, "id": 2917442971, "timestamp": 1553963350, "version": 5, "lat": 60.173526763916016, "addr:city": "Helsinki", "addr:country": "FI", "addr:housenumber": "3", "addr:housename": null, "addr:postcode": null, "addr:street": "Töölönlahdenkatu", "email": null, "name": "Woolshed", "opening_hours": null, "operator": null, "phone": null, "url": null, "website": "https:\/\/www.woolshed.eu\/", "amenity": "restaurant", "internet_access": null, "pub": "yes", "source": null, "osm_type": "node" }, "geometry": { "type": "Point", "coordinates": [ 24.939117431640625, 60.173526763916016 ] } },
{ "type": "Feature", "properties": { "changeset": 0, "tags": { "cuisine": "asian", "lunch": "yes", "toilets:wheelchair": "yes", "wheelchair": "yes" }, "lon": 24.939069747924805, "id": 2917442972, "timestamp": 1553420583, "version": 4, "lat": 60.173362731933594, "addr:city": "Helsinki", "addr:country": "FI", "addr:housenumber": "3", "addr:housename": null, "addr:postcode": null, "addr:street": "Töölönlahdenkatu", "email": null, "name": "Jufu", "opening_hours": null, "operator": null, "phone": null, "url": null, "website": null, "amenity": "restaurant", "internet_access": null, "pub": null, "source": null, "osm_type": "node" }, "geometry": { "type": "Point", "coordinates": [ 24.939069747924805, 60.173362731933594 ] } },
{ "type": "Feature", "properties": { "changeset": 0, "tags": { "diet:vegan": "only", "diet:vegetarian": "only" }, "lon": 24.936128616333008, "id": 3223504268, "timestamp": 1552743254, "version": 4, "lat": 60.168003082275391, "addr:city": null, "addr:country": null, "addr:housenumber": "29 B", "addr:housename": null, "addr:postcode": null, "addr:street": "Annankatu", "email": null, "name": "OmNam", "opening_hours": "Mo-Fr 11:00-15:00 open \"Lunch\"; We-Fr 17:00-22:00 open \"Dinner\"; Sa 12:00-22:00 open \"Dinner\"", "operator": null, "phone": null, "url": null, "website": "http:\/\/omnam.fi\/", "amenity": "restaurant", "internet_access": null, "pub": null, "source": null, "osm_type": "node" }, "geometry": { "type": "Point", "coordinates": [ 24.936128616333008, 60.168003082275391 ] } },
{ "type": "Feature", "properties": { "changeset": 0, "tags": { "cuisine": "french" }, "lon": 24.935991287231445, "id": 3345320894, "timestamp": 1553963147, "version": 7, "lat": 60.165241241455078, "addr:city": "Helsinki", "addr:country": "FI", "addr:housenumber": "41", "addr:housename": null, "addr:postcode": "00120", "addr:street": "Fredrikinkatu", "email": "varaukset@murudining.fi", "name": "Muru", "opening_hours": "Tu-Sa 17:00-23:30", "operator": null, "phone": "+358300472335", "url": null, "website": "https:\/\/www.murudining.fi\/", "amenity": "restaurant", "internet_access": null, "pub": null, "source": null, "osm_type": "node" }, "geometry": { "type": "Point", "coordinates": [ 24.935991287231445, 60.165241241455078 ] } },
{ "type": "Feature", "properties": { "changeset": 0, "tags": { "cuisine": "sushi" }, "lon": 24.951038360595703, "id": 3514710504, "timestamp": 1431520412, "version": 1, "lat": 60.16583251953125, "addr:city": null, "addr:country": null, "addr:housenumber": null, "addr:housename": null, "addr:postcode": null, "addr:street": null, "email": null, "name": "Hanko Sushi", "opening_hours": null, "operator": null, "phone": null, "url": null, "website": null, "amenity": "restaurant", "internet_access": null, "pub": null, "source": null, "osm_type": "node" }, "geometry": { "type": "Point", "coordinates": [ 24.951038360595703, 60.16583251953125 ] } },
{ "type": "Feature", "properties": { "changeset": 0, "tags": null, "lon": 24.952253341674805, "id": 3688552937, "timestamp": 1439153601, "version": 1, "lat": 60.172115325927734, "addr:city": null, "addr:country": null, "addr:housenumber": null, "addr:housename": null, "addr:postcode": null, "addr:street": null, "email": null, "name": null, "opening_hours": null, "operator": null, "phone": null, "url": null, "website": null, "amenity": "restaurant", "internet_access": null, "pub": null, "source": null, "osm_type": "node" }, "geometry": { "type": "Point", "coordinates": [ 24.952253341674805, 60.172115325927734 ] } },
{ "type": "Feature", "properties": { "changeset": 0, "tags": null, "lon": 24.947607040405273, "id": 3900514148, "timestamp": 1547973580, "version": 2, "lat": 60.164360046386719, "addr:city": "Helsinki", "addr:country": null, "addr:housenumber": "3", "addr:housename": null, "addr:postcode": "00130", "addr:street": "Pieni Roobertinkatu", "email": null, "name": "Krog Roba", "opening_hours": null, "operator": null, "phone": null, "url": null, "website": "https:\/\/www.lillaroberts.com\/en\/restaurant", "amenity": "restaurant", "internet_access": null, "pub": null, "source": null, "osm_type": "node" }, "geometry": { "type": "Point", "coordinates": [ 24.947607040405273, 60.164360046386719 ] } },
{ "type": "Feature", "properties": { "changeset": 0, "tags": { "wheelchair": "yes", "wheelchair:description": "Nice view and good tapas" }, "lon": 24.936637878417969, "id": 4142570489, "timestamp": 1461407987, "version": 1, "lat": 60.169010162353516, "addr:city": "Helsinki", "addr:country": null, "addr:housenumber": null, "addr:housename": null, "addr:postcode": null, "addr:street": "simonskatan", "email": null, "name": "g-lounge", "opening_hours": null, "operator": null, "phone": null, "url": null, "website": null, "amenity": "restaurant", "internet_access": null, "pub": null, "source": null, "osm_type": "node" }, "geometry": { "type": "Point", "coordinates": [ 24.936637878417969, 60.169010162353516 ] } },
{ "type": "Feature", "properties": { "changeset": 0, "tags": { "cuisine": "italian" }, "lon": 24.947105407714844, "id": 4226460217, "timestamp": 1465119471, "version": 1, "lat": 60.167037963867188, "addr:city": null, "addr:country": null, "addr:housenumber": null, "addr:housename": null, "addr:postcode": null, "addr:street": null, "email": null, "name": "Presto", "opening_hours": null, "operator": "ita", "phone": null, "url": null, "website": "http:\/\/www.ravintolapresto.fi\/", "amenity": "restaurant", "internet_access": null, "pub": null, "source": null, "osm_type": "node" }, "geometry": { "type": "Point", "coordinates": [ 24.947105407714844, 60.167037963867188 ] } },
{ "type": "Feature", "properties": { "changeset": 0, "tags": { "cuisine": "burger" }, "lon": 24.945558547973633, "id": 4254231989, "timestamp": 1485186635, "version": 2, "lat": 60.171836853027344, "addr:city": "Helsinki", "addr:country": null, "addr:housenumber": "19", "addr:housename": null, "addr:postcode": "00100", "addr:street": "Mikonkatu", "email": null, "name": "Sports Bar Casino Helsinki", "opening_hours": "Mo-Th,Su 12:00-00:30; Fr-Sa 12:00-01:30", "operator": null, "phone": null, "url": null, "website": null, "amenity": "restaurant", "internet_access": null, "pub": null, "source": null, "osm_type": "node" }, "geometry": { "type": "Point", "coordinates": [ 24.945558547973633, 60.171836853027344 ] } },
{ "type": "Feature", "properties": { "changeset": 0, "tags": null, "lon": 24.94989013671875, "id": 4351743616, "timestamp": 1487428887, "version": 4, "lat": 60.165554046630859, "addr:city": "Helsinki", "addr:country": null, "addr:housenumber": "17", "addr:housename": null, "addr:postcode": "00130", "addr:street": "Fabianinkatu", "email": null, "name": "The Cock", "opening_hours": null, "operator": null, "phone": null, "url": null, "website": "http:\/\/thecock.fi", "amenity": "restaurant", "internet_access": null, "pub": null, "source": null, "osm_type": "node" }, "geometry": { "type": "Point", "coordinates": [ 24.94989013671875, 60.165554046630859 ] } },
{ "type": "Feature", "properties": { "changeset": 0, "tags": { "name:fi": "Ravintola Bro", "wheelchair": "yes" }, "lon": 24.951442718505859, "id": 4370935158, "timestamp": 1553962745, "version": 6, "lat": 60.177074432373047, "addr:city": "Helsinki", "addr:country": null, "addr:housenumber": "4", "addr:housename": null, "addr:postcode": "00530", "addr:street": "John Stenbergin ranta", "email": null, "name": "BRO Restaurant & Cocktail bar", "opening_hours": "Mo-Fr 11:00-23:00; Sa-Su 12:00-10:00", "operator": null, "phone": null, "url": null, "website": "https:\/\/www3.hilton.com\/en\/hotels\/finland\/hilton-helsinki-strand-HELHIHI\/dining\/index.html", "amenity": "restaurant", "internet_access": null, "pub": null, "source": null, "osm_type": "node" }, "geometry": { "type": "Point", "coordinates": [ 24.951442718505859, 60.177074432373047 ] } },
{ "type": "Feature", "properties": { "changeset": 0, "tags": { "toilets:wheelchair": "yes", "wheelchair": "yes", "wheelchair:description": "Wheelchair entrance: Ateneuminkuja, elevator." }, "lon": 24.94379997253418, "id": 4518279089, "timestamp": 1553963485, "version": 5, "lat": 60.170036315917969, "addr:city": "Helsinki", "addr:country": null, "addr:housenumber": "2", "addr:housename": null, "addr:postcode": "00100", "addr:street": "Kaivokatu", "email": null, "name": "Ateneum Bistro", "opening_hours": null, "operator": null, "phone": null, "url": null, "website": "https:\/\/ateneum.fi\/ateneum-bistro\/", "amenity": "restaurant", "internet_access": null, "pub": null, "source": null, "osm_type": "node" }, "geometry": { "type": "Point", "coordinates": [ 24.94379997253418, 60.170036315917969 ] } },
{ "type": "Feature", "properties": { "changeset": 0, "tags": { "wheelchair": "limited" }, "lon": 24.944765090942383, "id": 4518283089, "timestamp": 1493499629, "version": 5, "lat": 60.169200897216797, "addr:city": "Helsinki", "addr:country": null, "addr:housenumber": "15", "addr:housename": null, "addr:postcode": "00100", "addr:street": "Aleksanterinkatu", "email": null, "name": "MorriSon's Pizzeria & Spagetteria", "opening_hours": null, "operator": null, "phone": null, "url": null, "website": "http:\/\/pizzamorrisons.fi\/", "amenity": "restaurant", "internet_access": null, "pub": null, "source": null, "osm_type": "node" }, "geometry": { "type": "Point", "coordinates": [ 24.944765090942383, 60.169200897216797 ] } },
{ "type": "Feature", "properties": { "changeset": 0, "tags": { "cuisine": "georgian" }, "lon": 24.946073532104492, "id": 4526426303, "timestamp": 1489173301, "version": 4, "lat": 60.165943145751953, "addr:city": "Helsinki", "addr:country": "FI", "addr:housenumber": "4", "addr:housename": null, "addr:postcode": "00130", "addr:street": "Rikhardinkatu", "email": null, "name": "Purpur", "opening_hours": "Mo-Th 16:00-23:00;Fr-Sa 15:00-24:00;Su 16:00-23:00", "operator": null, "phone": null, "url": null, "website": "http:\/\/www.purpur.fi\/", "amenity": "restaurant", "internet_access": null, "pub": null, "source": null, "osm_type": "node" }, "geometry": { "type": "Point", "coordinates": [ 24.946073532104492, 60.165943145751953 ] } },
{ "type": "Feature", "properties": { "changeset": 0, "tags": { "cuisine": "nordic", "name:en": "Demo" }, "lon": 24.941326141357422, "id": 4549508089, "timestamp": 1495466635, "version": 6, "lat": 60.164794921875, "addr:city": "Helsinki", "addr:country": "FI", "addr:housenumber": "9-11", "addr:housename": null, "addr:postcode": "00120", "addr:street": "Uudenmaankatu", "email": null, "name": "Demo", "opening_hours": "Tu-Sa 16:00-23:00", "operator": null, "phone": null, "url": null, "website": "http:\/\/www.restaurantdemo.fi\/", "amenity": "restaurant", "internet_access": null, "pub": null, "source": null, "osm_type": "node" }, "geometry": { "type": "Point", "coordinates": [ 24.941326141357422, 60.164794921875 ] } },
{ "type": "Feature", "properties": { "changeset": 0, "tags": null, "lon": 24.942232131958008, "id": 4558788099, "timestamp": 1553963087, "version": 5, "lat": 60.165985107421875, "addr:city": "Helsinki", "addr:country": "FI", "addr:housenumber": "6", "addr:housename": null, "addr:postcode": "00120", "addr:street": "Bulevardi", "email": null, "name": "Boulevard Social Bar & Restaurant", "opening_hours": "Mo-Th 11:30-01:00; Sa 17:00-01:00", "operator": null, "phone": null, "url": null, "website": "https:\/\/boulevardsocial.fi\/", "amenity": "restaurant", "internet_access": null, "pub": null, "source": null, "osm_type": "node" }, "geometry": { "type": "Point", "coordinates": [ 24.942232131958008, 60.165985107421875 ] } },
{ "type": "Feature", "properties": { "changeset": 0, "tags": { "name:en": "Finlandia Caviar" }, "lon": 24.952156066894531, "id": 4573796091, "timestamp": 1553963373, "version": 3, "lat": 60.167140960693359, "addr:city": null, "addr:country": null, "addr:housenumber": "20", "addr:housename": null, "addr:postcode": "00130", "addr:street": "Eteläranta", "email": null, "name": "Finlandia Caviar", "opening_hours": "Mo-Th 11:00-20:00; Fr-Sa 11:00-22:00; Su 11:00-18:00", "operator": null, "phone": "+358105817810", "url": null, "website": "https:\/\/www.finlandiacaviar.fi\/", "amenity": "restaurant", "internet_access": null, "pub": null, "source": null, "osm_type": "node" }, "geometry": { "type": "Point", "coordinates": [ 24.952156066894531, 60.167140960693359 ] } },
{ "type": "Feature", "properties": { "changeset": 0, "tags": { "cuisine": "fine_dining", "name:en": "Ragu" }, "lon": 24.944862365722656, "id": 4573822789, "timestamp": 1553962756, "version": 5, "lat": 60.165870666503906, "addr:city": "Helsinki", "addr:country": "FI", "addr:housenumber": "3-5", "addr:housename": null, "addr:postcode": "00130", "addr:street": "Ludviginkatu", "email": null, "name": "Ravintola Ragu (Italian kitchen)", "opening_hours": "Mo-Sa 17:00-00:00", "operator": null, "phone": "+3589596659", "url": null, "website": "https:\/\/ragu.fi\/", "amenity": "restaurant", "internet_access": null, "pub": null, "source": null, "osm_type": "node" }, "geometry": { "type": "Point", "coordinates": [ 24.944862365722656, 60.165870666503906 ] } },
{ "type": "Feature", "properties": { "changeset": 0, "tags": { "cuisine": "middle eastern", "wheelchair": "limited" }, "lon": 24.936233520507812, "id": 4622594691, "timestamp": 1496553581, "version": 4, "lat": 60.164218902587891, "addr:city": "Helsinki", "addr:country": "FI", "addr:housenumber": "15", "addr:housename": null, "addr:postcode": "00120", "addr:street": "Bulevardi", "email": null, "name": "Levant", "opening_hours": "Mo-Th 11:00-19:00; Fr-Sa 11:00-21:00", "operator": null, "phone": null, "url": null, "website": "http:\/\/www.levant-bulevardi.com\/", "amenity": "restaurant", "internet_access": null, "pub": null, "source": null, "osm_type": "node" }, "geometry": { "type": "Point", "coordinates": [ 24.936233520507812, 60.164218902587891 ] } },
{ "type": "Feature", "properties": { "changeset": 0, "tags": { "name:fi": "Soppakeittio" }, "lon": 24.952775955200195, "id": 4690953689, "timestamp": 1487353638, "version": 1, "lat": 60.166004180908203, "addr:city": null, "addr:country": null, "addr:housenumber": null, "addr:housename": null, "addr:postcode": null, "addr:street": "Eteläranta", "email": null, "name": "Soppakeittio", "opening_hours": null, "operator": null, "phone": null, "url": null, "website": null, "amenity": "restaurant", "internet_access": null, "pub": null, "source": null, "osm_type": "node" }, "geometry": { "type": "Point", "coordinates": [ 24.952775955200195, 60.166004180908203 ] } },
{ "type": "Feature", "properties": { "changeset": 0, "tags": { "cuisine": "greek" }, "lon": 24.945121765136719, "id": 4691897404, "timestamp": 1507239507, "version": 5, "lat": 60.165870666503906, "addr:city": "Helsinki", "addr:country": "FI", "addr:housenumber": "3-5", "addr:housename": null, "addr:postcode": "00130", "addr:street": "Ludviginkatu", "email": null, "name": "El Greco", "opening_hours": "Mo-Th 11:30-23:00; Fr 11:30-24:00; Sa 16:00-24:00", "operator": null, "phone": null, "url": null, "website": "http:\/\/elgreco.fi\/", "amenity": "restaurant", "internet_access": null, "pub": null, "source": null, "osm_type": "node" }, "geometry": { "type": "Point", "coordinates": [ 24.945121765136719, 60.165870666503906 ] } },
{ "type": "Feature", "properties": { "changeset": 0, "tags": null, "lon": 24.942480087280273, "id": 4691897408, "timestamp": 1495466635, "version": 4, "lat": 60.164955139160156, "addr:city": "Helsinki", "addr:country": "FI", "addr:housenumber": "2", "addr:housename": null, "addr:postcode": null, "addr:street": "Uudenmaankatu", "email": null, "name": "Trocadero", "opening_hours": "Mo-Fr 11:00-15:00", "operator": null, "phone": null, "url": null, "website": null, "amenity": "restaurant", "internet_access": null, "pub": null, "source": null, "osm_type": "node" }, "geometry": { "type": "Point", "coordinates": [ 24.942480087280273, 60.164955139160156 ] } },
{ "type": "Feature", "properties": { "changeset": 0, "tags": null, "lon": 24.941183090209961, "id": 4691897410, "timestamp": 1495466635, "version": 4, "lat": 60.164749145507812, "addr:city": "Helsinki", "addr:country": "FI", "addr:housenumber": null, "addr:housename": null, "addr:postcode": null, "addr:street": "Uudenmaankatu", "email": null, "name": "Penny", "opening_hours": "We-Th 11:00-23:00;Fr 11:00-24:00; Sa 12:00-24:00;Su 12:00-18:00", "operator": null, "phone": null, "url": null, "website": "http:\/\/www.restaurantpenny.fi", "amenity": "restaurant", "internet_access": null, "pub": null, "source": null, "osm_type": "node" }, "geometry": { "type": "Point", "coordinates": [ 24.941183090209961, 60.164749145507812 ] } },
{ "type": "Feature", "properties": { "changeset": 0, "tags": { "cuisine": "asian", "shop": "florist" }, "lon": 24.940879821777344, "id": 4691897413, "timestamp": 1537117040, "version": 6, "lat": 60.164649963378906, "addr:city": "Helsinki", "addr:country": "FI", "addr:housenumber": "13", "addr:housename": null, "addr:postcode": "00120", "addr:street": "Uudenmaankatu", "email": null, "name": "Stone Bowl N Sushi", "opening_hours": null, "operator": null, "phone": null, "url": null, "website": "https:\/\/www.facebook.com\/STONEBOWLNSUSHI\/", "amenity": "restaurant", "internet_access": null, "pub": null, "source": null, "osm_type": "node" }, "geometry": { "type": "Point", "coordinates": [ 24.940879821777344, 60.164649963378906 ] } },
{ "type": "Feature", "properties": { "changeset": 0, "tags": { "cuisine": "vegetarian;vegan" }, "lon": 24.949457168579102, "id": 4692013476, "timestamp": 1534356339, "version": 3, "lat": 60.1661376953125, "addr:city": "Helsinki", "addr:country": "FI", "addr:housenumber": "4", "addr:housename": null, "addr:postcode": null, "addr:street": "Fabianinkatu", "email": null, "name": "Zucchini", "opening_hours": "Mo-Su 11:00-16:00", "operator": null, "phone": "+358 9 622 29 07", "url": null, "website": null, "amenity": "restaurant", "internet_access": null, "pub": null, "source": null, "osm_type": "node" }, "geometry": { "type": "Point", "coordinates": [ 24.949457168579102, 60.1661376953125 ] } },
{ "type": "Feature", "properties": { "changeset": 0, "tags": { "cuisine": "steak" }, "lon": 24.952232360839844, "id": 4692013478, "timestamp": 1553962999, "version": 3, "lat": 60.166366577148438, "addr:city": null, "addr:country": null, "addr:housenumber": null, "addr:housename": null, "addr:postcode": null, "addr:street": null, "email": null, "name": "Goodwin", "opening_hours": null, "operator": null, "phone": null, "url": null, "website": "https:\/\/www.steak.fi\/fin\/helsinki\/index.html", "amenity": "restaurant", "internet_access": null, "pub": null, "source": null, "osm_type": "node" }, "geometry": { "type": "Point", "coordinates": [ 24.952232360839844, 60.166366577148438 ] } },
{ "type": "Feature", "properties": { "changeset": 0, "tags": null, "lon": 24.952083587646484, "id": 4692013479, "timestamp": 1487418448, "version": 1, "lat": 60.16656494140625, "addr:city": null, "addr:country": null, "addr:housenumber": null, "addr:housename": null, "addr:postcode": null, "addr:street": null, "email": null, "name": "Restaurant Haven", "opening_hours": null, "operator": null, "phone": null, "url": null, "website": null, "amenity": "restaurant", "internet_access": null, "pub": null, "source": null, "osm_type": "node" }, "geometry": { "type": "Point", "coordinates": [ 24.952083587646484, 60.16656494140625 ] } },
{ "type": "Feature", "properties": { "changeset": 0, "tags": null, "lon": 24.940343856811523, "id": 4692013485, "timestamp": 1553963143, "version": 4, "lat": 60.165321350097656, "addr:city": "Helsinki", "addr:country": "FI", "addr:housenumber": "12", "addr:housename": null, "addr:postcode": null, "addr:street": "Bulevardi", "email": null, "name": "Werner", "opening_hours": "Tu-Th 17:00-22:00; Fr-Sa 17:00-23:00", "operator": null, "phone": null, "url": null, "website": "https:\/\/ravintolawerner.fi\/", "amenity": "restaurant", "internet_access": null, "pub": null, "source": null, "osm_type": "node" }, "geometry": { "type": "Point", "coordinates": [ 24.940343856811523, 60.165321350097656 ] } },
{ "type": "Feature", "properties": { "changeset": 0, "tags": null, "lon": 24.941850662231445, "id": 4692013486, "timestamp": 1502029149, "version": 4, "lat": 60.165641784667969, "addr:city": "Helsinki", "addr:country": "FI", "addr:housenumber": "18", "addr:housename": null, "addr:postcode": "00120", "addr:street": "Yrjönkatu", "email": null, "name": "Pjazza", "opening_hours": null, "operator": null, "phone": null, "url": null, "website": "http:\/\/pjazza.fi", "amenity": "restaurant", "internet_access": null, "pub": null, "source": null, "osm_type": "node" }, "geometry": { "type": "Point", "coordinates": [ 24.941850662231445, 60.165641784667969 ] } },
{ "type": "Feature", "properties": { "changeset": 0, "tags": { "wheelchair": "yes" }, "lon": 24.947854995727539, "id": 4693464160, "timestamp": 1491664299, "version": 2, "lat": 60.169506072998047, "addr:city": null, "addr:country": null, "addr:housenumber": null, "addr:housename": null, "addr:postcode": null, "addr:street": null, "email": null, "name": "Hanko Sushi", "opening_hours": null, "operator": null, "phone": null, "url": null, "website": null, "amenity": "restaurant", "internet_access": null, "pub": null, "source": null, "osm_type": "node" }, "geometry": { "type": "Point", "coordinates": [ 24.947854995727539, 60.169506072998047 ] } },
{ "type": "Feature", "properties": { "changeset": 0, "tags": { "cuisine": "pizza", "diet:vegan": "yes", "diet:vegetarian": "yes", "wheelchair": "yes" }, "lon": 24.948768615722656, "id": 4693464163, "timestamp": 1550684804, "version": 3, "lat": 60.169143676757812, "addr:city": null, "addr:country": null, "addr:housenumber": null, "addr:housename": null, "addr:postcode": null, "addr:street": null, "email": null, "name": "Pizzarium", "opening_hours": null, "operator": null, "phone": null, "url": null, "website": null, "amenity": "restaurant", "internet_access": null, "pub": null, "source": null, "osm_type": "node" }, "geometry": { "type": "Point", "coordinates": [ 24.948768615722656, 60.169143676757812 ] } },
{ "type": "Feature", "properties": { "changeset": 0, "tags": null, "lon": 24.946662902832031, "id": 4693464164, "timestamp": 1493501498, "version": 2, "lat": 60.169910430908203, "addr:city": "Helsinki", "addr:country": null, "addr:housenumber": "5", "addr:housename": null, "addr:postcode": "00100", "addr:street": "Yliopistonkatu", "email": null, "name": "Caverna", "opening_hours": null, "operator": null, "phone": null, "url": null, "website": "http:\/\/caverna.fi\/", "amenity": "restaurant", "internet_access": null, "pub": null, "source": null, "osm_type": "node" }, "geometry": { "type": "Point", "coordinates": [ 24.946662902832031, 60.169910430908203 ] } },
{ "type": "Feature", "properties": { "changeset": 0, "tags": { "cuisine": "mexican" }, "lon": 24.948776245117188, "id": 4718446527, "timestamp": 1488725238, "version": 1, "lat": 60.169071197509766, "addr:city": null, "addr:country": null, "addr:housenumber": null, "addr:housename": null, "addr:postcode": null, "addr:street": null, "email": null, "name": "Pancho Villa", "opening_hours": null, "operator": null, "phone": null, "url": null, "website": null, "amenity": "restaurant", "internet_access": null, "pub": null, "source": null, "osm_type": "node" }, "geometry": { "type": "Point", "coordinates": [ 24.948776245117188, 60.169071197509766 ] } },
{ "type": "Feature", "properties": { "changeset": 0, "tags": null, "lon": 24.941476821899414, "id": 4727521423, "timestamp": 1489142313, "version": 1, "lat": 60.169197082519531, "addr:city": null, "addr:country": null, "addr:housenumber": null, "addr:housename": null, "addr:postcode": null, "addr:street": null, "email": null, "name": "Pizza Hut", "opening_hours": null, "operator": null, "phone": null, "url": null, "website": null, "amenity": "restaurant", "internet_access": null, "pub": null, "source": null, "osm_type": "node" }, "geometry": { "type": "Point", "coordinates": [ 24.941476821899414, 60.169197082519531 ] } },
{ "type": "Feature", "properties": { "changeset": 0, "tags": { "diet:vegan": "yes", "diet:vegetarian": "yes", "wheelchair": "yes" }, "lon": 24.941640853881836, "id": 4727521424, "timestamp": 1552316991, "version": 4, "lat": 60.168937683105469, "addr:city": null, "addr:country": null, "addr:housenumber": null, "addr:housename": null, "addr:postcode": null, "addr:street": null, "email": null, "name": "Harald", "opening_hours": "Mo-Tu 11:00-22:00; We-Fr 11:00-23:00; Sa 12:00-23:00; Su 13:00-22:00", "operator": null, "phone": null, "url": null, "website": "https:\/\/www.ravintolaharald.fi\/helsinki\/", "amenity": "restaurant", "internet_access": null, "pub": null, "source": null, "osm_type": "node" }, "geometry": { "type": "Point", "coordinates": [ 24.941640853881836, 60.168937683105469 ] } },
{ "type": "Feature", "properties": { "changeset": 0, "tags": null, "lon": 24.936922073364258, "id": 4736792284, "timestamp": 1553963640, "version": 4, "lat": 60.165939331054688, "addr:city": null, "addr:country": null, "addr:housenumber": null, "addr:housename": null, "addr:postcode": null, "addr:street": null, "email": null, "name": "Lönkka", "opening_hours": "Mo-Th 11:00-23:00; Fr 11:00-01:00, Sa 15:00-01:00", "operator": null, "phone": null, "url": null, "website": "https:\/\/lonkka.fi\/", "amenity": "restaurant", "internet_access": null, "pub": null, "source": null, "osm_type": "node" }, "geometry": { "type": "Point", "coordinates": [ 24.936922073364258, 60.165939331054688 ] } },
{ "type": "Feature", "properties": { "changeset": 0, "tags": null, "lon": 24.936281204223633, "id": 4738322128, "timestamp": 1495728847, "version": 3, "lat": 60.165477752685547, "addr:city": "Helsinki", "addr:country": "FI", "addr:housenumber": "14", "addr:housename": null, "addr:postcode": null, "addr:street": "Lönnrotinkatu", "email": null, "name": "Mezame", "opening_hours": null, "operator": null, "phone": null, "url": null, "website": null, "amenity": "restaurant", "internet_access": null, "pub": null, "source": null, "osm_type": "node" }, "geometry": { "type": "Point", "coordinates": [ 24.936281204223633, 60.165477752685547 ] } },
{ "type": "Feature", "properties": { "changeset": 0, "tags": { "cuisine": "pizza" }, "lon": 24.937164306640625, "id": 4747221535, "timestamp": 1490290573, "version": 3, "lat": 60.168468475341797, "addr:city": "Helsinki", "addr:country": "FI", "addr:housenumber": "29", "addr:housename": null, "addr:postcode": null, "addr:street": "Yrjönkatu", "email": null, "name": "Barbarossa", "opening_hours": null, "operator": null, "phone": null, "url": null, "website": null, "amenity": "restaurant", "internet_access": null, "pub": null, "source": null, "osm_type": "node" }, "geometry": { "type": "Point", "coordinates": [ 24.937164306640625, 60.168468475341797 ] } },
{ "type": "Feature", "properties": { "changeset": 0, "tags": { "cuisine": "indian", "level": "3", "lunch:buffet": "Mo-Fr 10:30-16:00; Sa 12:00-17:00; Su 12:00-17:00", "wheelchair": "yes" }, "lon": 24.936752319335938, "id": 4747221556, "timestamp": 1544894350, "version": 5, "lat": 60.169113159179688, "addr:city": "Helsinki", "addr:country": "FI", "addr:housenumber": "8", "addr:housename": "Forum", "addr:postcode": "00100", "addr:street": "Simonkatu", "email": "indiahouse@indiahouse.fi", "name": "Indian House", "opening_hours": "Mo-Fr 10:30-22:30, Sa 12:00-22:30; Su 12:00-20:00", "operator": null, "phone": "+358 50 463 0155", "url": null, "website": "http:\/\/www.indiahouse.fi\/", "amenity": "restaurant", "internet_access": null, "pub": null, "source": null, "osm_type": "node" }, "geometry": { "type": "Point", "coordinates": [ 24.936752319335938, 60.169113159179688 ] } },
{ "type": "Feature", "properties": { "changeset": 0, "tags": { "cuisine": "sushi", "level": "1" }, "lon": 24.939487457275391, "id": 4749101640, "timestamp": 1544894351, "version": 3, "lat": 60.168247222900391, "addr:city": "Helsinki", "addr:country": "FI", "addr:housenumber": "14", "addr:housename": "Forum", "addr:postcode": "00100", "addr:street": "Mannerheimintie", "email": "kenny@itamaesushi.fi", "name": "Itamae Sushi", "opening_hours": "Mo-Fr 11:00-21:00;Sa-Su 12:00-18:00", "operator": null, "phone": "+358 9 698 0091", "url": null, "website": "http:\/\/www.itamaesushi.fi\/", "amenity": "restaurant", "internet_access": null, "pub": null, "source": null, "osm_type": "node" }, "geometry": { "type": "Point", "coordinates": [ 24.939487457275391, 60.168247222900391 ] } },
{ "type": "Feature", "properties": { "changeset": 0, "tags": { "cuisine": "kebab", "level": "1" }, "lon": 24.939756393432617, "id": 4749101646, "timestamp": 1544894352, "version": 3, "lat": 60.168411254882812, "addr:city": "Helsinki", "addr:country": "FI", "addr:housenumber": "14", "addr:housename": "Forum", "addr:postcode": "00100", "addr:street": "Mannerheimintie", "email": null, "name": "Eerikin Pippuri", "opening_hours": "Su-Tu 10:00-21:00; We-Sa 10:00-05:00", "operator": null, "phone": "+358 50 465 1222", "url": null, "website": "http:\/\/www.eerikinpippuri.fi\/mannerheimintie\/", "amenity": "restaurant", "internet_access": null, "pub": null, "source": null, "osm_type": "node" }, "geometry": { "type": "Point", "coordinates": [ 24.939756393432617, 60.168411254882812 ] } },
{ "type": "Feature", "properties": { "changeset": 0, "tags": { "cuisine": "thai", "diet:vegetarian": "yes", "level": "1", "lunch:buffet": "Mo-Fr 11:00-14:00" }, "lon": 24.939382553100586, "id": 4749101648, "timestamp": 1551023209, "version": 4, "lat": 60.168319702148438, "addr:city": "Helsinki", "addr:country": "FI", "addr:housenumber": "14", "addr:housename": "Forum", "addr:postcode": "00100", "addr:street": "Mannerheimintie", "email": "info@tamarin.fi", "name": "Tamarin", "opening_hours": "Mo-Fr 11:00-21:00; Sa-Su 12:00-18:00", "operator": null, "phone": "+358 9 698 0026", "url": null, "website": "http:\/\/www.tamarin.fi\/ravintolat\/forum\/", "amenity": "restaurant", "internet_access": null, "pub": null, "source": null, "osm_type": "node" }, "geometry": { "type": "Point", "coordinates": [ 24.939382553100586, 60.168319702148438 ] } },
{ "type": "Feature", "properties": { "changeset": 0, "tags": { "cuisine": "vietnamese", "level": "1", "reservation": "yes" }, "lon": 24.939334869384766, "id": 4749101655, "timestamp": 1544894353, "version": 3, "lat": 60.16851806640625, "addr:city": "Helsinki", "addr:country": "FI", "addr:housenumber": "14", "addr:housename": "Forum", "addr:postcode": "00100", "addr:street": "Mannerheimintie", "email": "info@onam.fi", "name": "Ônam", "opening_hours": "Mo-Fr 11:00-21:00; Sa 12:00-19:00; Su 12:00-18:00", "operator": null, "phone": "+358 44 988 0738", "url": null, "website": "http:\/\/www.onam.fi\/", "amenity": "restaurant", "internet_access": null, "pub": null, "source": null, "osm_type": "node" }, "geometry": { "type": "Point", "coordinates": [ 24.939334869384766, 60.16851806640625 ] } },
{ "type": "Feature", "properties": { "changeset": 0, "tags": { "wheelchair": "yes" }, "lon": 24.940496444702148, "id": 4754875474, "timestamp": 1491663931, "version": 2, "lat": 60.169818878173828, "addr:city": null, "addr:country": null, "addr:housenumber": null, "addr:housename": null, "addr:postcode": null, "addr:street": null, "email": null, "name": "Splizzeria", "opening_hours": null, "operator": null, "phone": null, "url": null, "website": null, "amenity": "restaurant", "internet_access": null, "pub": null, "source": null, "osm_type": "node" }, "geometry": { "type": "Point", "coordinates": [ 24.940496444702148, 60.169818878173828 ] } },
{ "type": "Feature", "properties": { "changeset": 0, "tags": null, "lon": 24.944604873657227, "id": 4754875498, "timestamp": 1493499580, "version": 2, "lat": 60.169265747070312, "addr:city": "Helsinki", "addr:country": null, "addr:housenumber": "15", "addr:housename": null, "addr:postcode": "00100", "addr:street": "Aleksanterinkatu", "email": null, "name": "Grande Grill", "opening_hours": null, "operator": null, "phone": null, "url": null, "website": "http:\/\/grandegrill.fi\/", "amenity": "restaurant", "internet_access": null, "pub": null, "source": null, "osm_type": "node" }, "geometry": { "type": "Point", "coordinates": [ 24.944604873657227, 60.169265747070312 ] } },
{ "type": "Feature", "properties": { "changeset": 0, "tags": { "cuisine": "salad", "diet:vegan": "yes", "diet:vegetarian": "yes" }, "lon": 24.937482833862305, "id": 4767046626, "timestamp": 1552250865, "version": 7, "lat": 60.166629791259766, "addr:city": "Helsinki", "addr:country": null, "addr:housenumber": "21", "addr:housename": null, "addr:postcode": null, "addr:street": "Annankatu", "email": null, "name": "Pupu", "opening_hours": "Mo-Fr 11:00-15:00", "operator": null, "phone": null, "url": null, "website": "https:\/\/pupu.fi", "amenity": "restaurant", "internet_access": null, "pub": null, "source": null, "osm_type": "node" }, "geometry": { "type": "Point", "coordinates": [ 24.937482833862305, 60.166629791259766 ] } },
{ "type": "Feature", "properties": { "changeset": 0, "tags": { "name:fi": "Barbarossa Pizza & Kebab" }, "lon": 24.937108993530273, "id": 4776225421, "timestamp": 1491374140, "version": 1, "lat": 60.168548583984375, "addr:city": null, "addr:country": null, "addr:housenumber": "29", "addr:housename": null, "addr:postcode": "00100", "addr:street": "Yrjönkatu", "email": null, "name": "Barbarossa Pizza & Kebab", "opening_hours": "Mo-Th 10:30-22:00; Fr-Sa 10:30-22:00; Su 12:00-22:00", "operator": null, "phone": null, "url": null, "website": null, "amenity": "restaurant", "internet_access": null, "pub": null, "source": null, "osm_type": "node" }, "geometry": { "type": "Point", "coordinates": [ 24.937108993530273, 60.168548583984375 ] } },
{ "type": "Feature", "properties": { "changeset": 0, "tags": null, "lon": 24.951154708862305, "id": 5041335223, "timestamp": 1502983940, "version": 1, "lat": 60.165416717529297, "addr:city": "Helsinki", "addr:country": null, "addr:housenumber": null, "addr:housename": null, "addr:postcode": null, "addr:street": null, "email": null, "name": "Toca", "opening_hours": null, "operator": null, "phone": null, "url": null, "website": null, "amenity": "restaurant", "internet_access": null, "pub": null, "source": null, "osm_type": "node" }, "geometry": { "type": "Point", "coordinates": [ 24.951154708862305, 60.165416717529297 ] } },
{ "type": "Feature", "properties": { "changeset": 0, "tags": { "cuisine": "asian" }, "lon": 24.945028305053711, "id": 5045054070, "timestamp": 1503160055, "version": 1, "lat": 60.166934967041016, "addr:city": null, "addr:country": null, "addr:housenumber": null, "addr:housename": null, "addr:postcode": null, "addr:street": null, "email": null, "name": "Masu", "opening_hours": null, "operator": "restamax", "phone": null, "url": null, "website": null, "amenity": "restaurant", "internet_access": null, "pub": null, "source": null, "osm_type": "node" }, "geometry": { "type": "Point", "coordinates": [ 24.945028305053711, 60.166934967041016 ] } },
{ "type": "Feature", "properties": { "changeset": 0, "tags": { "cuisine": "chinese", "outdoor_seating": "no" }, "lon": 24.947225570678711, "id": 5105150077, "timestamp": 1505390174, "version": 1, "lat": 60.172481536865234, "addr:city": "Helsinki", "addr:country": null, "addr:housenumber": "20", "addr:housename": null, "addr:postcode": "00100", "addr:street": "Vuorikatu", "email": null, "name": "Dong Bei Hu", "opening_hours": "Mon - Fri 11am - 11pm, Sat 12am - 11pm, Sun 2pm - 10pm", "operator": null, "phone": null, "url": null, "website": null, "amenity": "restaurant", "internet_access": null, "pub": null, "source": null, "osm_type": "node" }, "geometry": { "type": "Point", "coordinates": [ 24.947225570678711, 60.172481536865234 ] } },
{ "type": "Feature", "properties": { "changeset": 0, "tags": { "name:en": "Deliberi" }, "lon": 24.943181991577148, "id": 5170957221, "timestamp": 1547973998, "version": 2, "lat": 60.169479370117188, "addr:city": "Helsinki", "addr:country": null, "addr:housenumber": "7", "addr:housename": null, "addr:postcode": "00100", "addr:street": "Keskuskatu", "email": null, "name": "Deliberi", "opening_hours": null, "operator": null, "phone": null, "url": null, "website": "http:\/\/www.deliberi.fi\/toimipisteet\/deliberi-k7\/", "amenity": "restaurant", "internet_access": null, "pub": null, "source": null, "osm_type": "node" }, "geometry": { "type": "Point", "coordinates": [ 24.943181991577148, 60.169479370117188 ] } },
{ "type": "Feature", "properties": { "changeset": 0, "tags": null, "lon": 24.943609237670898, "id": 5212514052, "timestamp": 1509892961, "version": 1, "lat": 60.168392181396484, "addr:city": "Helsinki", "addr:country": null, "addr:housenumber": "3 A", "addr:housename": null, "addr:postcode": "00100", "addr:street": "Keskuskatu", "email": "marmoripiha@dylan.fi", "name": "Dylan Marmoripiha", "opening_hours": null, "operator": null, "phone": null, "url": null, "website": "https:\/\/www.dylan.fi\/", "amenity": "restaurant", "internet_access": null, "pub": null, "source": null, "osm_type": "node" }, "geometry": { "type": "Point", "coordinates": [ 24.943609237670898, 60.168392181396484 ] } },
{ "type": "Feature", "properties": { "changeset": 0, "tags": { "cuisine": "vegetarian", "diet:vegan": "yes", "diet:vegetarian": "only" }, "lon": 24.943893432617188, "id": 5212533136, "timestamp": 1549792867, "version": 6, "lat": 60.164196014404297, "addr:city": "Helsinki", "addr:country": "FI", "addr:housenumber": "1", "addr:housename": null, "addr:postcode": "00120", "addr:street": "Iso Roobertinkatu", "email": null, "name": "Yes Yes Yes", "opening_hours": "Tu-Th 16:00-24:00; Fr 16:00-02:00; Sa 12:00-02:00", "operator": null, "phone": null, "url": null, "website": "https:\/\/www.yesyesyes.fi\/", "amenity": "restaurant", "internet_access": null, "pub": null, "source": null, "osm_type": "node" }, "geometry": { "type": "Point", "coordinates": [ 24.943893432617188, 60.164196014404297 ] } },
{ "type": "Feature", "properties": { "changeset": 0, "tags": { "cuisine": "sushi", "lunch:buffet": "Mo-Fr 11:00-15:00", "reservation": "yes", "takeaway": "yes" }, "lon": 24.93879508972168, "id": 5264590061, "timestamp": 1544894354, "version": 2, "lat": 60.169109344482422, "addr:city": "Helsinki", "addr:country": "FI", "addr:housenumber": "18", "addr:housename": "Forum", "addr:postcode": "00100", "addr:street": "Mannerheimintie", "email": "fukuhelsinki@ravintolafuku.com", "name": "Fuku", "opening_hours": "Mo-Th 10:30-22:00; Fr 10:30-24:00; Sa 11:00-24:00; Su 11:00-22:00", "operator": null, "phone": "+358 10 501 1170", "url": null, "website": "https:\/\/www.fukuhelsinki.com\/", "amenity": "restaurant", "internet_access": null, "pub": null, "source": null, "osm_type": "node" }, "geometry": { "type": "Point", "coordinates": [ 24.93879508972168, 60.169109344482422 ] } },
{ "type": "Feature", "properties": { "changeset": 0, "tags": { "contact:email": "lasipalatsi@latorre.fi", "contact:phone": "09 42893930", "contact:website": "http:\/\/www.latorre.fi\/toimipiste\/lasipalatsi" }, "lon": 24.936050415039062, "id": 5648878021, "timestamp": 1527575073, "version": 1, "lat": 60.170680999755859, "addr:city": null, "addr:country": null, "addr:housenumber": null, "addr:housename": null, "addr:postcode": null, "addr:street": null, "email": "lasipalatsi@latorre.fi", "name": "Torrefazione", "opening_hours": "Mo-Fr 07:30-20:00, Sa 10:00-19:00; Sa 12:00-18:00", "operator": null, "phone": null, "url": null, "website": null, "amenity": "restaurant", "internet_access": null, "pub": null, "source": null, "osm_type": "node" }, "geometry": { "type": "Point", "coordinates": [ 24.936050415039062, 60.170680999755859 ] } },
{ "type": "Feature", "properties": { "changeset": 0, "tags": null, "lon": 24.945304870605469, "id": 5706110998, "timestamp": 1529518040, "version": 1, "lat": 60.164291381835938, "addr:city": "Helsinki", "addr:country": null, "addr:housenumber": null, "addr:housename": null, "addr:postcode": null, "addr:street": "Pieni Roobertinkatu", "email": null, "name": "Dumplings", "opening_hours": null, "operator": null, "phone": null, "url": null, "website": null, "amenity": "restaurant", "internet_access": null, "pub": null, "source": null, "osm_type": "node" }, "geometry": { "type": "Point", "coordinates": [ 24.945304870605469, 60.164291381835938 ] } },
{ "type": "Feature", "properties": { "changeset": 0, "tags": { "alt_name": "Na'am City", "cuisine": "african", "layer": "1", "level": "2", "outdoor_seating": "no" }, "lon": 24.941684722900391, "id": 5901505657, "timestamp": 1552132114, "version": 3, "lat": 60.170009613037109, "addr:city": "Helsinki", "addr:country": null, "addr:housenumber": "8", "addr:housename": null, "addr:postcode": "00101", "addr:street": "Kaivokatu", "email": null, "name": "Na'am Kitchen", "opening_hours": "Mo-Fr 11:00-20:00; Sa 11:30-20:00", "operator": null, "phone": null, "url": null, "website": "https:\/\/www.naamkitchen.com\/", "amenity": "restaurant", "internet_access": null, "pub": null, "source": null, "osm_type": "node" }, "geometry": { "type": "Point", "coordinates": [ 24.941684722900391, 60.170009613037109 ] } },
{ "type": "Feature", "properties": { "changeset": 0, "tags": { "cuisine": "thai", "level": "2", "outdoor_seating": "no" }, "lon": 24.941684722900391, "id": 5906657572, "timestamp": 1552132114, "version": 2, "lat": 60.169963836669922, "addr:city": "Helsinki", "addr:country": null, "addr:housenumber": "8", "addr:housename": null, "addr:postcode": "00101", "addr:street": "Kaivokatu", "email": null, "name": "Bangkok9", "opening_hours": null, "operator": null, "phone": null, "url": null, "website": null, "amenity": "restaurant", "internet_access": null, "pub": null, "source": null, "osm_type": "node" }, "geometry": { "type": "Point", "coordinates": [ 24.941684722900391, 60.169963836669922 ] } },
{ "type": "Feature", "properties": { "changeset": 0, "tags": { "level": "2", "outdoor_seating": "no" }, "lon": 24.941883087158203, "id": 5906657573, "timestamp": 1552132431, "version": 3, "lat": 60.170089721679688, "addr:city": "Helsinki", "addr:country": null, "addr:housenumber": "8", "addr:housename": null, "addr:postcode": "00101", "addr:street": "Kaivokatu", "email": null, "name": "No Pizza", "opening_hours": "Mo-Tu 11:00-20:00, We-Th 11:00-21:00; Fr-Sa 11:00-23:00; Su 12:00-19:00", "operator": null, "phone": null, "url": null, "website": null, "amenity": "restaurant", "internet_access": null, "pub": null, "source": null, "osm_type": "node" }, "geometry": { "type": "Point", "coordinates": [ 24.941883087158203, 60.170089721679688 ] } },
{ "type": "Feature", "properties": { "changeset": 0, "tags": { "cuisine": "pizza", "diet:vegan": "yes", "diet:vegetarian": "yes", "level": "-1" }, "lon": 24.942626953125, "id": 6049453007, "timestamp": 1552317468, "version": 2, "lat": 60.168510437011719, "addr:city": "Helsinki", "addr:country": null, "addr:housenumber": "52", "addr:housename": "Stockmann", "addr:postcode": "00100", "addr:street": "Aleksanterinkatu", "email": null, "name": "Classic Pizza", "opening_hours": "Mo-Fr 10:30-21:00; Sa 10:30-19:00; Su 11:00-18:00", "operator": null, "phone": "+358 9 121 3838", "url": null, "website": "https:\/\/www.classicpizza.fi\/", "amenity": "restaurant", "internet_access": null, "pub": null, "source": null, "osm_type": "node" }, "geometry": { "type": "Point", "coordinates": [ 24.942626953125, 60.168510437011719 ] } },
{ "type": "Feature", "properties": { "changeset": 0, "tags": { "cuisine": "sushi", "level": "7" }, "lon": 24.942684173583984, "id": 6049453016, "timestamp": 1541783843, "version": 1, "lat": 60.167999267578125, "addr:city": "Helsinki", "addr:country": null, "addr:housenumber": "52", "addr:housename": "Stockmann", "addr:postcode": "00100", "addr:street": "Aleksanterinkatu", "email": null, "name": "Hanko Sushi", "opening_hours": "Mo-Fr 11:00-21:00; Sa 11:00-19:00; Su 11:00-18:00", "operator": null, "phone": null, "url": null, "website": null, "amenity": "restaurant", "internet_access": null, "pub": null, "source": null, "osm_type": "node" }, "geometry": { "type": "Point", "coordinates": [ 24.942684173583984, 60.167999267578125 ] } },
{ "type": "Feature", "properties": { "changeset": 0, "tags": null, "lon": 24.942422866821289, "id": 6049453019, "timestamp": 1541783844, "version": 1, "lat": 60.168270111083984, "addr:city": "Helsinki", "addr:country": null, "addr:housenumber": "52", "addr:housename": "Stockmann", "addr:postcode": "00100", "addr:street": "Aleksanterinkatu", "email": null, "name": "Fazer À La Carte", "opening_hours": "Mo-Fr 11:00-21:00; Sa 11:00-19:00; Su 11:00-17:00", "operator": null, "phone": "+358 50 466 5320", "url": null, "website": "https:\/\/www.fazer.fi\/ravintolat-ja-leipomot\/ravintolat\/fazer-8th-floor\/fazer--la-carte\/", "amenity": "restaurant", "internet_access": null, "pub": null, "source": null, "osm_type": "node" }, "geometry": { "type": "Point", "coordinates": [ 24.942422866821289, 60.168270111083984 ] } },
{ "type": "Feature", "properties": { "changeset": 0, "tags": null, "lon": 24.942577362060547, "id": 6049453020, "timestamp": 1541783844, "version": 1, "lat": 60.16864013671875, "addr:city": "Helsinki", "addr:country": null, "addr:housenumber": "52", "addr:housename": "Stockmann", "addr:postcode": "00100", "addr:street": "Aleksanterinkatu", "email": "f8@fazer.fi", "name": "Fazer Food Market", "opening_hours": "Mo-Fr 10:30-21:00; Sa 10:30-18:00; Su 12:00-18:00", "operator": null, "phone": "+358 20 729 6803", "url": null, "website": "https:\/\/www.fazer.fi\/ravintolat-ja-leipomot\/ravintolat\/fazer-8th-floor\/fazer-food-market\/", "amenity": "restaurant", "internet_access": null, "pub": null, "source": null, "osm_type": "node" }, "geometry": { "type": "Point", "coordinates": [ 24.942577362060547, 60.16864013671875 ] } },
{ "type": "Feature", "properties": { "changeset": 0, "tags": { "cuisine": "chinese", "level": "2" }, "lon": 24.942226409912109, "id": 6049453040, "timestamp": 1553963631, "version": 2, "lat": 60.167808532714844, "addr:city": "Helsinki", "addr:country": null, "addr:housenumber": "41", "addr:housename": "Stockmann", "addr:postcode": "00100", "addr:street": "Pohjoisesplanadi", "email": "reservations@biang.fi", "name": "Biáng!", "opening_hours": "Mo-Fr 11:00-17:00; Sa 11:00-18:30; Su 12:00-17:30", "operator": null, "phone": "+358 50 353 7437", "url": null, "website": "https:\/\/www.biang.fi\/", "amenity": "restaurant", "internet_access": null, "pub": null, "source": null, "osm_type": "node" }, "geometry": { "type": "Point", "coordinates": [ 24.942226409912109, 60.167808532714844 ] } },
{ "type": "Feature", "properties": { "changeset": 0, "tags": { "cuisine": "fish", "level": "0", "outdoor_seating": "no" }, "lon": 24.942564010620117, "id": 6049453044, "timestamp": 1541783848, "version": 1, "lat": 60.168350219726562, "addr:city": "Helsinki", "addr:country": null, "addr:housenumber": "52", "addr:housename": "Stockmann", "addr:postcode": "00100", "addr:street": "Aleksanterinkatu", "email": "viviane.kallio@royalravintolat.com", "name": "Fishmarket", "opening_hours": "Mo-Fr 09:00-21:00; Sa 09:00-19:00; Su 11:00-18:00", "operator": null, "phone": "+358 50 467 0972", "url": null, "website": "https:\/\/www.royalravintolat.com\/fi\/ravintolat\/ravintola\/fishmarket\/", "amenity": "restaurant", "internet_access": null, "pub": null, "source": null, "osm_type": "node" }, "geometry": { "type": "Point", "coordinates": [ 24.942564010620117, 60.168350219726562 ] } },
{ "type": "Feature", "properties": { "changeset": 0, "tags": { "cuisine": "lebanese", "diet:vegetarian": "yes", "level": "0" }, "lon": 24.942176818847656, "id": 6049453045, "timestamp": 1551476371, "version": 2, "lat": 60.168178558349609, "addr:city": "Helsinki", "addr:country": null, "addr:housenumber": "52", "addr:housename": "Stockmann", "addr:postcode": "00100", "addr:street": "Aleksanterinkatu", "email": "info@comptoirfarouge.fi", "name": "Comptoir Farouge", "opening_hours": "Mo-Fr 09:00-21:00; Sa 09:00-19:00; Su 11:00-18:00", "operator": null, "phone": "+358 50 336 9854", "url": null, "website": "http:\/\/www.comptoirfarouge.fi\/", "amenity": "restaurant", "internet_access": null, "pub": null, "source": null, "osm_type": "node" }, "geometry": { "type": "Point", "coordinates": [ 24.942176818847656, 60.168178558349609 ] } },
{ "type": "Feature", "properties": { "changeset": 0, "tags": { "cuisine": "sushi", "level": "0" }, "lon": 24.942354202270508, "id": 6049453046, "timestamp": 1541783848, "version": 1, "lat": 60.168209075927734, "addr:city": "Helsinki", "addr:country": null, "addr:housenumber": "52", "addr:housename": "Stockmann", "addr:postcode": "00100", "addr:street": "Aleksanterinkatu", "email": null, "name": "Hanko Sushi", "opening_hours": "Mo-Fr 09:00-21:00; Sa 09:00-19:00; Su 11:00-18:00", "operator": null, "phone": null, "url": null, "website": "http:\/\/www.hankosushi.fi\/", "amenity": "restaurant", "internet_access": null, "pub": null, "source": null, "osm_type": "node" }, "geometry": { "type": "Point", "coordinates": [ 24.942354202270508, 60.168209075927734 ] } },
{ "type": "Feature", "properties": { "changeset": 0, "tags": { "cuisine": "salad", "diet:vegan": "yes", "diet:vegetarian": "yes", "level": "0", "outdoor_seating": "yes" }, "lon": 24.942409515380859, "id": 6049453047, "timestamp": 1552250378, "version": 3, "lat": 60.16778564453125, "addr:city": "Helsinki", "addr:country": null, "addr:housenumber": "41", "addr:housename": "Stockmann", "addr:postcode": "00100", "addr:street": "Pohjoisesplanadi", "email": null, "name": "Pupu", "opening_hours": "Mo-Fr 09:00-21:00; Sa 09:00-19:00; Su 11:00-18:00", "operator": null, "phone": "+358 50 517 0093", "url": null, "website": "https:\/\/www.pupu.fi\/", "amenity": "restaurant", "internet_access": null, "pub": null, "source": null, "osm_type": "node" }, "geometry": { "type": "Point", "coordinates": [ 24.942409515380859, 60.16778564453125 ] } },
{ "type": "Feature", "properties": { "changeset": 0, "tags": { "cuisine": "japanese;okinawan", "diet:vegan": "yes", "diet:vegetarian": "yes" }, "lon": 24.945947647094727, "id": 6054365876, "timestamp": 1551713507, "version": 3, "lat": 60.166965484619141, "addr:city": "Helsinki", "addr:country": null, "addr:housenumber": "47", "addr:housename": null, "addr:postcode": "00130", "addr:street": "Korkeavuorenkatu", "email": null, "name": "Latitude 25", "opening_hours": "Tu-We 11:00-15:00; Th 11:00-20:00; Fr 11:00-21:00; Sa 12:00-21:00", "operator": null, "phone": null, "url": null, "website": "https:\/\/www.latitude25.fi\/", "amenity": "restaurant", "internet_access": null, "pub": null, "source": null, "osm_type": "node" }, "geometry": { "type": "Point", "coordinates": [ 24.945947647094727, 60.166965484619141 ] } },
{ "type": "Feature", "properties": { "changeset": 0, "tags": { "full_name": "La Torrefazione Hakaniemi", "short_name": "Torre" }, "lon": 24.949623107910156, "id": 6095625763, "timestamp": 1543327959, "version": 1, "lat": 60.178600311279297, "addr:city": null, "addr:country": null, "addr:housenumber": null, "addr:housename": null, "addr:postcode": null, "addr:street": null, "email": null, "name": "La Torrefazione", "opening_hours": null, "operator": null, "phone": null, "url": null, "website": "http:\/\/www.latorre.fi\/toimipiste\/hakaniemi", "amenity": "restaurant", "internet_access": null, "pub": null, "source": null, "osm_type": "node" }, "geometry": { "type": "Point", "coordinates": [ 24.949623107910156, 60.178600311279297 ] } },
{ "type": "Feature", "properties": { "changeset": 0, "tags": { "cuisine": "finnish;nordic", "smoking": "no" }, "lon": 24.945161819458008, "id": 6123414862, "timestamp": 1544190093, "version": 1, "lat": 60.169303894042969, "addr:city": "Helsinki", "addr:country": null, "addr:housenumber": "6", "addr:housename": null, "addr:postcode": "00100", "addr:street": "Mikonkatu", "email": null, "name": "Wild", "opening_hours": "Mo-Th 10:00-19:00; Fr-Sa 10:00-23:00", "operator": null, "phone": "+358 505 246 046", "url": null, "website": "https:\/\/www.worldoftre.com\/pages\/wild", "amenity": "restaurant", "internet_access": null, "pub": null, "source": null, "osm_type": "node" }, "geometry": { "type": "Point", "coordinates": [ 24.945161819458008, 60.169303894042969 ] } },
{ "type": "Feature", "properties": { "changeset": 0, "tags": { "level": "0" }, "lon": 24.93791389465332, "id": 6138893749, "timestamp": 1547974382, "version": 2, "lat": 60.173843383789062, "addr:city": null, "addr:country": null, "addr:housenumber": null, "addr:housename": null, "addr:postcode": null, "addr:street": null, "email": null, "name": "Fazer Food & Co", "opening_hours": null, "operator": null, "phone": null, "url": null, "website": "https:\/\/www.fazerfoodco.fi\/en\/restaurants\/Ravintolat-kaupungeittain\/helsinki\/oodi\/", "amenity": "restaurant", "internet_access": null, "pub": null, "source": null, "osm_type": "node" }, "geometry": { "type": "Point", "coordinates": [ 24.93791389465332, 60.173843383789062 ] } },
{ "type": "Feature", "properties": { "changeset": 0, "tags": { "cuisine": "asian", "level": "3" }, "lon": 24.93828010559082, "id": 6139262247, "timestamp": 1544894328, "version": 1, "lat": 60.169040679931641, "addr:city": "Helsinki", "addr:country": "FI", "addr:housenumber": "20", "addr:housename": "Forum", "addr:postcode": "00100", "addr:street": "Mannerheimintie", "email": null, "name": "Wok Up", "opening_hours": "Mo-Fr 10:30-21:00; Sa 10:30-18:00; Su 12:00-18:00", "operator": null, "phone": "+358 10 766 4413", "url": null, "website": "https:\/\/www.raflaamo.fi\/fi\/helsinki\/wok-up-kukontori\/", "amenity": "restaurant", "internet_access": null, "pub": null, "source": null, "osm_type": "node" }, "geometry": { "type": "Point", "coordinates": [ 24.93828010559082, 60.169040679931641 ] } },
{ "type": "Feature", "properties": { "changeset": 0, "tags": { "cuisine": "salad", "diet:vegan": "yes", "diet:vegetarian": "yes", "level": "0" }, "lon": 24.93828010559082, "id": 6139262264, "timestamp": 1550688597, "version": 2, "lat": 60.168777465820312, "addr:city": "Helsinki", "addr:country": "FI", "addr:housenumber": "14-20", "addr:housename": "Forum", "addr:postcode": "00100", "addr:street": "Mannerheimintie", "email": "forum@salaattiasema.fi", "name": "Salaattiasema", "opening_hours": null, "operator": null, "phone": "+358 50 465 0777", "url": null, "website": "https:\/\/www.salaattiasema.fi\/salaattiasema-kauppakeskus-forum\/", "amenity": "restaurant", "internet_access": null, "pub": null, "source": null, "osm_type": "node" }, "geometry": { "type": "Point", "coordinates": [ 24.93828010559082, 60.168777465820312 ] } },
{ "type": "Feature", "properties": { "changeset": 0, "tags": { "cuisine": "italian", "level": "3", "reservation": "yes" }, "lon": 24.938335418701172, "id": 6139262265, "timestamp": 1547388396, "version": 2, "lat": 60.168972015380859, "addr:city": "Helsinki", "addr:country": "FI", "addr:housenumber": "20", "addr:housename": "Forum", "addr:postcode": "00100", "addr:street": "Mannerheimintie", "email": "ravintola.italo@sok.fi", "name": "Italo", "opening_hours": "Mo-Th 10:30-22:00; Fr-Sa 10:30-23:00; Su 12:00-21:00", "operator": null, "phone": "+358 10 766 4410", "url": null, "website": "https:\/\/www.raflaamo.fi\/fi\/helsinki\/italo\/", "amenity": "restaurant", "internet_access": null, "pub": null, "source": null, "osm_type": "node" }, "geometry": { "type": "Point", "coordinates": [ 24.938335418701172, 60.168972015380859 ] } },
{ "type": "Feature", "properties": { "changeset": 0, "tags": { "cuisine": "steak_house", "level": "0" }, "lon": 24.938400268554688, "id": 6139262280, "timestamp": 1544894335, "version": 1, "lat": 60.168914794921875, "addr:city": "Helsinki", "addr:country": "FI", "addr:housenumber": "20", "addr:housename": "Forum", "addr:postcode": "00100", "addr:street": "Mannerheimintie", "email": "palaute@manhattansteakhouse.fi", "name": "Manhattan Steak House", "opening_hours": "Mo-Fr 10:30-21:00; Sa 10:30-20:00; Su 11:00-18:00", "operator": null, "phone": "+358 9 694 4207", "url": null, "website": "http:\/\/www.manhattansteakhouse.fi\/forum\/", "amenity": "restaurant", "internet_access": null, "pub": null, "source": null, "osm_type": "node" }, "geometry": { "type": "Point", "coordinates": [ 24.938400268554688, 60.168914794921875 ] } },
{ "type": "Feature", "properties": { "changeset": 0, "tags": { "level": "1", "lunch:buffet": "Mo-Fr 11:00-14:00", "reservation": "yes" }, "lon": 24.938591003417969, "id": 6139262593, "timestamp": 1544894337, "version": 1, "lat": 60.16943359375, "addr:city": "Helsinki", "addr:country": "FI", "addr:housenumber": "20", "addr:housename": "Forum", "addr:postcode": "00100", "addr:street": "Mannerheimintie", "email": "ravintola.kaarna@sok.fi", "name": "Kaarna", "opening_hours": "Mo-Th 11:00-23:00; Fr-Sa 11:00-24:00; Su 12:00-22:00", "operator": null, "phone": "+358 10 766 4550", "url": null, "website": "https:\/\/www.raflaamo.fi\/fi\/helsinki\/kaarna-baari-keittio\/", "amenity": "restaurant", "internet_access": null, "pub": null, "source": null, "osm_type": "node" }, "geometry": { "type": "Point", "coordinates": [ 24.938591003417969, 60.16943359375 ] } },
{ "type": "Feature", "properties": { "changeset": 0, "tags": { "cuisine": "chinese", "level": "0" }, "lon": 24.938360214233398, "id": 6139262605, "timestamp": 1544894339, "version": 1, "lat": 60.16900634765625, "addr:city": "Helsinki", "addr:country": "FI", "addr:housenumber": "20 B", "addr:housename": "Forum", "addr:postcode": "00100", "addr:street": "Mannerheimintie", "email": "info@huacheng.fi", "name": "Huacheng Restaurant", "opening_hours": "Mo-Fr 10:30-21:00; Sa 11:00-20:00; Su 12:00-20:00", "operator": null, "phone": "+358 9 753 1631", "url": null, "website": "http:\/\/www.huacheng.fi\/", "amenity": "restaurant", "internet_access": null, "pub": null, "source": null, "osm_type": "node" }, "geometry": { "type": "Point", "coordinates": [ 24.938360214233398, 60.16900634765625 ] } },
{ "type": "Feature", "properties": { "changeset": 0, "tags": { "cuisine": "sushi", "level": "3", "lunch:menu": "Mo-Fr 11:00-15:00" }, "lon": 24.93812370300293, "id": 6139262609, "timestamp": 1547388396, "version": 2, "lat": 60.16888427734375, "addr:city": "Helsinki", "addr:country": "FI", "addr:housenumber": "20", "addr:housename": "Forum", "addr:postcode": "00100", "addr:street": "Mannerheimintie", "email": "forum@hankosushi.fi", "name": "Hanko Sushi", "opening_hours": "Mo-Fr 11:00-21:00; Sa 11:00-19:00; Su 12:00-18:00", "operator": null, "phone": "+358 40 654 8282", "url": null, "website": "http:\/\/www.hankosushi.fi\/", "amenity": "restaurant", "internet_access": null, "pub": null, "source": null, "osm_type": "node" }, "geometry": { "type": "Point", "coordinates": [ 24.93812370300293, 60.16888427734375 ] } },
{ "type": "Feature", "properties": { "changeset": 0, "tags": { "cuisine": "sushi", "diet:vegan": "yes", "diet:vegetarian": "yes", "outdoor_seating": "no" }, "lon": 24.940509796142578, "id": 6326864346, "timestamp": 1552132553, "version": 2, "lat": 60.169902801513672, "addr:city": null, "addr:country": null, "addr:housenumber": null, "addr:housename": null, "addr:postcode": null, "addr:street": null, "email": null, "name": "luckiefun's", "opening_hours": null, "operator": null, "phone": null, "url": null, "website": null, "amenity": "restaurant", "internet_access": null, "pub": null, "source": null, "osm_type": "node" }, "geometry": { "type": "Point", "coordinates": [ 24.940509796142578, 60.169902801513672 ] } },
{ "type": "Feature", "properties": { "changeset": 0, "tags": { "diet:vegan": "yes", "diet:vegetarian": "yes", "level": "2" }, "lon": 24.941461563110352, "id": 6326871950, "timestamp": 1552132115, "version": 4, "lat": 60.169792175292969, "addr:city": null, "addr:country": null, "addr:housenumber": null, "addr:housename": null, "addr:postcode": null, "addr:street": null, "email": null, "name": "döner harju", "opening_hours": "Mo-Th 10:30-21:00, Fr 10:30-22:00; Sa 11:00-22:00; Su 12:00-19:00", "operator": null, "phone": null, "url": null, "website": null, "amenity": "restaurant", "internet_access": null, "pub": null, "source": null, "osm_type": "node" }, "geometry": { "type": "Point", "coordinates": [ 24.941461563110352, 60.169792175292969 ] } },
{ "type": "Feature", "properties": { "changeset": 0, "tags": { "level": "2", "outdoor_seating": "no" }, "lon": 24.941474914550781, "id": 6326873042, "timestamp": 1552132115, "version": 3, "lat": 60.169876098632812, "addr:city": null, "addr:country": null, "addr:housenumber": null, "addr:housename": null, "addr:postcode": null, "addr:street": null, "email": null, "name": "lo stretto", "opening_hours": "Mo-Th 10:30-21:00, Fr 10:30-22:00; Sa 11:00-22:00; Su 12:00-19:00", "operator": null, "phone": null, "url": null, "website": null, "amenity": "restaurant", "internet_access": null, "pub": null, "source": null, "osm_type": "node" }, "geometry": { "type": "Point", "coordinates": [ 24.941474914550781, 60.169876098632812 ] } },
{ "type": "Feature", "properties": { "changeset": 0, "tags": { "level": "2", "outdoor_seating": "no" }, "lon": 24.941457748413086, "id": 6326874994, "timestamp": 1552132114, "version": 3, "lat": 60.169967651367188, "addr:city": null, "addr:country": null, "addr:housenumber": null, "addr:housename": null, "addr:postcode": null, "addr:street": null, "email": null, "name": "hey poke", "opening_hours": "Mo-Th 11:00-20:00, Fr 11:00-21:00; Sa 12:00-21:00; Su 12:00-18:00", "operator": null, "phone": null, "url": null, "website": null, "amenity": "restaurant", "internet_access": null, "pub": null, "source": null, "osm_type": "node" }, "geometry": { "type": "Point", "coordinates": [ 24.941457748413086, 60.169967651367188 ] } },
{ "type": "Feature", "properties": { "changeset": 0, "tags": { "level": "2" }, "lon": 24.941864013671875, "id": 6326877371, "timestamp": 1552241454, "version": 2, "lat": 60.169788360595703, "addr:city": null, "addr:country": null, "addr:housenumber": null, "addr:housename": null, "addr:postcode": null, "addr:street": null, "email": null, "name": "sushibar+wine", "opening_hours": null, "operator": null, "phone": null, "url": null, "website": null, "amenity": "restaurant", "internet_access": null, "pub": null, "source": null, "osm_type": "node" }, "geometry": { "type": "Point", "coordinates": [ 24.941864013671875, 60.169788360595703 ] } },
{ "type": "Feature", "properties": { "changeset": 0, "tags": { "cuisine": "sushi", "level": "1", "wheelchair": "yes" }, "lon": 24.941963195800781, "id": 6328881978, "timestamp": 1552226528, "version": 1, "lat": 60.169700622558594, "addr:city": null, "addr:country": null, "addr:housenumber": null, "addr:housename": null, "addr:postcode": null, "addr:street": null, "email": null, "name": "hanko sushi", "opening_hours": "Mo-Fr 11:00-21:00; Sa 12:00-18:00; Su 12:00-17:00", "operator": null, "phone": null, "url": null, "website": null, "amenity": "restaurant", "internet_access": null, "pub": null, "source": null, "osm_type": "node" }, "geometry": { "type": "Point", "coordinates": [ 24.941963195800781, 60.169700622558594 ] } }
]
}
